,tip.label,exclude,RAD_Results_from_Floragenex,Batch,PLATE_no,Row_no,Inst.,Extraction_Tube_no,Species,cleanedSpecies,Section,geoPol,Collector_no,Wild_Garden_Collected,Original_Source_Information,Vouchers,MOR_Herbarium_Accession_Number,Notes,Voucher_Image,Photo_1,Photo_2,City,County,State_Province,Country,Lat,Long,Georeference_Source,Cronn_CP,AFLP,,tips.orig,spName
Quercus rugosa | OAK-UMN-276 | MEXICO : Oaxaca,OAK-UMN-276,,YES,1,1,H1,UMN,OAK-UMN-276,Quercus rugosa,Quercus rugosa,Quercus,MEXICO : Oaxaca,JCB-MX-OA-PA-25,Wild collected,"Oaxaca, Mexico; Papalo",MOR,175531,,,,,,,Oaxaca,Mexico,17.85043275,-96.81965187,GPS,NO,YES,,>OAK-UMN-276,rugosa
Quercus polymorpha | OAK-MOR-173 | MEXICO : Nuevo Leon,OAK-MOR-173,,YES,1,1,H8,MOR,OAK-MOR-173,Quercus polymorpha,Quercus polymorpha,Quercus,MEXICO : Nuevo Leon,IL-SH-084,Starhill Forest Arboretum,"Monterrey Area; N.L., Mex. Daniel Zambrans; 96 (97)",MOR-Oak street - photo voucher,,,http://quercus.lifedesks.org/node/924,,,,,Nuevo León,Mexico,25.677806,-100.808778,"Google earth to Nuevo Leon, Mx. Monterrey",NO,NO,,>OAK-MOR-173,polymorpha
Quercus polymorpha | OAK-MOR-174 | USA : Texas,OAK-MOR-174,,YES,1,1,A9,MOR,OAK-MOR-174,Quercus polymorpha,Quercus polymorpha,Quercus,USA : Texas,IL-SH-085,Starhill Forest Arboretum,Dolan Falls; Valverde Co.; TX,MOR-Oak street - photo voucher,,,http://quercus.lifedesks.org/node/917,,,,Valverde,Texas,USA,29.883333,-101,"Google search for Dolan Falls, Texas.",NO,YES,,>OAK-MOR-174,polymorpha
Quercus mohriana | OAK-MOR-125 | USA : Texas,OAK-MOR-125,,YES,2,2,F2,MOR,OAK-MOR-125,Quercus mohriana,Quercus mohriana,Quercus,USA : Texas,CA-DAV-MH051,UC Davis Arboretum,"1200 ft upstream from Rock House, McKittrick Canyon:Culberson County: Texas: 5250 ft. D. Cavagnaro 198. 11 Oct 1963.","MOR, UMN, DUKE, ND",174704,,,,,,Culberson,Texas,USA,31.979167,-104.754722,"Google earth of McKittrick Canyon, in Texas",YES,YES,,>OAK-MOR-125,mohriana
Quercus mohriana | OAK-MOR-222 | USA : Texas,OAK-MOR-222,,YES,1,1,D7,MOR,OAK-MOR-222,Quercus mohriana,Quercus mohriana,Quercus,USA : Texas,IL-SH-036,Starhill Forest Arboretum,"Turrell Co., TX, USA",MOR,175276,,http://quercus.lifedesks.org/node/974,http://quercus.lifedesks.org/node/632,http://quercus.lifedesks.org/node/633,,Turrell,Texas,USA,30.23361,-102.178456,"Google Earth to Terrell Co., Tx",NO,YES,,>OAK-MOR-222,mohriana
Quercus laceyi | OAK-MOR-438 | USA : Texas,OAK-MOR-438,,YES,1,1,B6,MOR,OAK-MOR-438,Quercus laceyi,Quercus laceyi,Quercus,USA : Texas,IL-SH-170,Starhill Forest Arboretum,Edwards Co.;  TX; Edwards Co.; USA,MOR,175253,,,,,,Edwards,Texas,USA,29.93806,-100.39145,"Google earth to Edwards Co., TX",NO,YES,,>OAK-MOR-438,laceyi
Quercus laceyi | OAK-MOR-189 | USA,OAK-MOR-189,,YES,1,1,C6,MOR,OAK-MOR-189,Quercus laceyi,Quercus laceyi,Quercus,USA,IL-SH-177,Starhill Forest Arboretum,David Richardson ; USA ,MOR,175332,,,http://quercus.lifedesks.org/node/535,,,,,USA,NA,NA,NA,NO,NO,,>OAK-MOR-189,laceyi
Quercus hinckleyi | OAKS-MOR-472 | USA : Texas,OAKS-MOR-472,,"Q. hinckleyi from batch 2, plate 2- replaced on plate instead of Quercus x schuettei (Oak_MOR-604)",5,6,H1,MOR,OAK-MOR-472,Quercus hinckleyi ,Quercus hinckleyi,Quercus,USA : Texas,QUH1006,Wild collected,silia-dried leaves received from Janet Backs;  QUH1006 pop1,n/a,photo voucher,,http://quercus.lifedesks.org/node/988,,,,,Texas,USA,29.8035,-104.341,GPS,NO,YES,,>OAKS-MOR-472.nameFixed,hinckleyi
Quercus vaseyana | OAK-MOR-528 | USA : Texas,OAK-MOR-528,,YES,1,1,F12,MOR,OAK-MOR-528,Quercus vaseyana,Quercus vaseyana,Quercus,USA : Texas,IL-SH-075,Starhill Forest Arboretum,"Real Cp., TX; D. Richardson; 99",MOR-Oak street - photo voucher,,,http://quercus.lifedesks.org/node/923,,,,Real,Texas,USA,29.842715,-99.818781,"Google earth to center of Real Co., TX",NO,NO,,>OAK-MOR-528,vaseyana
Quercus vaseyana | OAK-MOR-397 | USA : Texas,OAK-MOR-397,,YES,1,1,B10,MOR,OAK-MOR-397,Quercus vaseyana,Quercus vaseyana,Quercus,USA : Texas,CA-DAV-MH039,UC Davis Arboretum,12.3 Miles South of Juno: Val Verde County: Texas: 1500 ft. D. Cavagnaro 170. 7 Oct 1963.,"MOR, UMN, DUKE, ND",174580,,,,,,Val Verde,Texas,USA,29.970985,-101.109021,"Google earth; 12.3 miles S of Juno, Texas",YES,YES,,>OAK-MOR-397,vaseyana
Quercus pungens | OAK-MOR-395 | USA : Texas,OAK-MOR-395,,YES,1,1,D9,MOR,OAK-MOR-395,Quercus pungens,Quercus pungens,Quercus,USA : Texas,CA-DAV-MH041,UC Davis Arboretum,"Pine Spring: Culberson County: Texas: 5700 ft. D. Cavagnaro
181. 10 Oct 1963.","MOR, UMN, DUKE, ND",174708,,,,,,Culberson,Texas,USA,31.893,-104.816,"Google search for Pine Springs, in Culberson County, TX",NO,YES,,>OAK-MOR-395,pungens
Quercus pungens | OAK-MOR-428 | USA : Texas,OAK-MOR-428,,YES,2,2,E2,MOR,OAK-MOR-428,Quercus pungens,Quercus pungens,Quercus,USA : Texas,IL-SH-098,Starhill Forest Arboretum,"McKittrick Canyon, Guadalupe Mtns. NP; TX, USA",MOR-photo voucher,176067,,n/a-photo voucher-see photos on lifedesks,,,,,Texas,USA,31.97917,-104.75417,GEOLocate Web App.,NO,NO,,>OAK-MOR-428,pungens
Quercus sinuata var. breviloba | OAK-MOR-448 | USA : Texas,OAK-MOR-448,,yes,3,4,A6,MOR,OAK-MOR-448,Quercus sinuata var. breviloba,Quercus sinuata var. breviloba,Quercus,USA : Texas,IL-SH-052,Starhill Forest Arboretum,"Collin Co., TX, USA ",,175344,"voucher looked at by AH, approved",http://quercus.lifedesks.org/node/1007,,,,Collin,Texas,USA,33.185902,-96.571204,"Google earth to center of Collin Co., TX",NO,NO,,>OAK-MOR-448.barcodeStripped,sinuata
Quercus sinuata | OAK-MOR-418 | USA : Texas,OAK-MOR-418,,YES,1,1,G9,MOR,OAK-MOR-418,Quercus sinuata,Quercus sinuata,Quercus,USA : Texas,CA-DAV-MH017,UC Davis Arboretum,"Collected in : Palmetto State Park collected directly from wild; origin known Palmetto State Park: Gonzales County: Texas: 350 ft. Information from herbarium voucher specimen: Huge old tree, trunk 1 1/2-3 feet in diameter; in swamp forest with Q. macrocarpa and Q. shumardii; elevation 350 feet; in parking area in vicinity of concession building, Palmetto State Park, Gonzales County, Texas. D. Q. Cavagnaro 271, October 27, 1963 (Noted by Emily Griswold in 1999). D. Q. Cavagnaro 271. 27 Oct 1963.","MOR, UMN, DUKE, ND",174571,,,,,,Gonzales,Texas,USA,29.592827,-97.585618,Google Earth for Palmatto State Prk,NO,YES,,>OAK-MOR-418,sinuata
Quercus oglethorpensis | OAK-MOR-549 | USA : Georgia,OAK-MOR-549,,,3,4,A7,MOR,OAK-MOR-549 ,Quercus oglethorpensis,Quercus oglethorpensis,Quercus,USA : Georgia,IL-SH-91,Starhill Forest Arboretum,"Oglethorpe Co., GA Lance 9922/99",Oak street photo voucher only,,"photo voucher looked at by AH- not optimal voucher to give great determination, but using as 2nd oglethorpensis anyway",http://quercus.lifedesks.org/node/968,,,,,,,33.887703,-83.086086,"Google earth to Oglethorpe Co., GA",NO,NO,,>OAK-MOR-549.barcodeStripped,oglethorpensis
Quercus oglethorpensis | PM190 |  : ,PM190,,,4,5,D12,DUKE,PM190,Quercus oglethorpensis,Quercus oglethorpensis,Quercus, : ,PM190,wild,,,,,,,,,,,,NA,NA,,,,,>PM190.barcodeStripped,oglethorpensis
Quercus oglethorpensis | OAK-MOR-548 | USA : South Carolina,OAK-MOR-548,,YES,2,2,G2,MOR,OAK-MOR-548,Quercus oglethorpensis,Quercus oglethorpensis,Quercus,USA : South Carolina,IL-MOR-MH104,The Morton Arboretum,collected south of the town of Ninety Six at Star Fort in Greenwood County South Carolina U.S.A.,"MOR, UMN, DUKE, ND",174565,,,http://quercus.lifedesks.org/node/413,http://quercus.lifedesks.org/node/421,,Greenwood,South Carolina,USA,34.142506,-82.016361,"Google Earth, Placed  at ninety Six National Historic Site, which I think = Star Fort. Definitely south of Ninety Six.",NO,YES,,>OAK-MOR-548,oglethorpensis
Quercus boyntonii | OAK-MOR-544 | USA : Alabama,OAK-MOR-544,,YES,2,2,E1,MOR,OAK-MOR-544,Quercus boyntonii,Quercus boyntonii,Quercus,USA : Alabama,IL-SH-179,Starhill Forest Arboretum,"Gadsden, AL, USA ",MOR,175334,,,http://quercus.lifedesks.org/node/519,,Gadsden,Etowah,Alabama,USA,34.014264,-86.00664,"Google Earth; Gadsden, AL",NO,YES,,>OAK-MOR-544,boyntonii
Quercus boyntonii | OAK-MOR-436 | USA : Alabama,OAK-MOR-436,,YES,1,1,F2,MOR,OAK-MOR-436,Quercus boyntonii,Quercus boyntonii,Quercus,USA : Alabama,IL-SH-024,Starhill Forest Arboretum,"Gadsden, AL, USA, Ron Lance, acquisition year 1999, planted Starhill 2012",MOR,175278,,http://quercus.lifedesks.org/node/950,,,,Etowah,Alabama,USA,34.014264,-86.00664,"Google Earth; Gadsden, AL",YES,YES,,>OAK-MOR-436,boyntonii
Quercus stellata | OAK-MOR-340 | USA : Missouri,OAK-MOR-340,,yes,3,4,B6,MOR,OAK-MOR-340,Quercus stellata,Quercus stellata,Quercus,USA : Missouri,IL-MOR-MH101,The Morton Arboretum,"collected by: Midwest Plant Collecting Collaborative (MWPCC) 2004 Ozark Expedi;  along I-44 and RR at Rosati in Phelps County Missouri U.S.A. (38.034944, -91.520306, 1067 ft)",,174543,"voucher looked at by AH, approved",http://quercus.lifedesks.org/node/987,,,,Phelps,Missouri,USA,38.034944,-91.520306,GPS,YES,NO,,>OAK-MOR-340.barcodeStripped,stellata
Quercus stellata | PM11 | USA : North Carolina,PM11,,YES,2,2,F4,DUKE,PM11,Quercus stellata,Quercus stellata,Quercus,USA : North Carolina,PM11,Wild collected,"North Carolina, USA; Durham county; 3658 Pineview Circle",,,2 stellata not right next to eachother in RAD analysis,,,,,Durham,North Carolina,USA,35.976736,-78.98655,PM gps info,NO,NO,,>PM11,stellata
Quercus similis | PM107 |  : ,PM107,,yes,3,4,F12,DUKE,PM107,Quercus similis,Quercus similis,Quercus, : ,PM107,,,,,,,,,,,,,32.19574,-93.29118,PM gps info,NO,NO,,>PM107.barcodeStripped,similis
Quercus margarettae | OAK-MOR-420 | USA : Texas,OAK-MOR-420,,YES,1,1,A7,MOR,OAK-MOR-420,Quercus margarettae,Quercus margarettae,Quercus,USA : Texas,CA-DAV-MH050,UC Davis Arboretum,"Palmetto State Park Road 11, 0.2 Miles in from Junction With U. S. 183: Gonzales County: Texas: . 400 ft. D. Cavagnaro 272. 27 Oct 1963.","MOR, UMN, DUKE, ND",174705,,,,,,Gonzales,Texas,USA,29.616474,-97.572742,Google earth .2 miles in from road 11 and US183.,YES,YES,,>OAK-MOR-420,margarettae
Quercus havardii | OAK-MOR-430 | USA : Texas,OAK-MOR-430,,YES,2,2,C2,MOR,OAK-MOR-430,Quercus havardii,Quercus havardii,Quercus,USA : Texas,IL-SH-099,Starhill Forest Arboretum,"Callahan Co., TX, USA",MOR-photo voucher,176064,,n/a-photo voucher-see photos on lifedesks,,,,Callahan,Texas,USA,32.28564,-99.449411,Google earth to Callahan Co. TX,NO,YES,,>OAK-MOR-430,havardii
Quercus chapmanii | OAK-UMN-004 | USA : Florida,OAK-UMN-004,,YES,2,2,A4,UMN,OAK-UMN-004,Quercus chapmanii,Quercus chapmanii,Quercus,USA : Florida,JCB-US-FL-RR-CH-1,Wild collected,"Florida, USA; Rivers rise preserve-Old Bellamy Rd.- this is seed tree FL-2,@ third sign turn rt(SW) - Sweetwater trail, located 87p on left.before reflective trail marker 3DBH, 12-15 tall.","UMN, MOR",175169,,,,,,,Florida,USA,29.90018333,-82.5802,GPS,NO,YES,,>OAK-UMN-004,chapmanii
Quercus austrina | OAK-UMN-003 | USA : Florida,OAK-UMN-003,,YES,2,2,B7,UMN,OAK-UMN-003,Quercus austrina,Quercus austrina,Quercus,USA : Florida,JCB-US-FL-IS-AU-3,Wild collected,"Florida ,United States; Ichetucknee Springs S.P.-North entrance-Pine ridge trail-past marker #1-east side. 19-2 DBH, on left, beside trail-another larger beyond ","UMN, MOR",175162,,,,,,,Florida,USA,29.97695,-82.76265,GPS,NO,NO,,>OAK-UMN-003,austrina
Quercus austrina | OAK-MOR-511 | USA : Georgia,OAK-MOR-511,,YES,1,1,C12,MOR,OAK-MOR-511,Quercus austrina,Quercus austrina,Quercus,USA : Georgia,IL-SH-048,Starhill Forest Arboretum,"Kolomoki Mounds SP;  GA, Early Co., USA",MOR,175342,,http://quercus.lifedesks.org/node/1005,http://quercus.lifedesks.org/node/699,http://quercus.lifedesks.org/node/698,,Early,Georgia,USA,31.468422,-84.938351,Google earth,NO,YES,,>OAK-MOR-511,austrina
Quercus margarettae | OAK-MOR-221 | USA : South Carolina,OAK-MOR-221,,yes,3,4,H5,MOR,OAK-MOR-221,Quercus margarettae,Quercus margarettae,Quercus,USA : South Carolina,IL-SH-049,Starhill Forest Arboretum,"Bob McCartney; Aiken, SC, USA",MOR-tiny + photos,,"unmounted voucher looked at by AH, approved",,,,,,,,33.560417,-81.719553,"Google earth to Aiken, SC.",NO,NO,,>OAK-MOR-221.barcodeStripped,margarettae
Quercus chrysolepis | OAK-MOR-415 | USA : Arizona,OAK-MOR-415,,YES,1,1,H2,MOR,OAK-MOR-415,Quercus chrysolepis,Quercus chrysolepis,Protobalanus,USA : Arizona,AZ-HU-17,Wild collected,"Arizona, USA; Huachuca Mountains - Carr Canyon Road","MOR, DUKE, ND, MX",174230,not falling next to each other other chrysolepis; OAK-MOR-474 falls out with 2010 data…,http://quercus.lifedesks.org/node/983,,,,,Arizona,USA,31.43347498,-109.2431153,GPS,YES,YES,,>OAK-MOR-415,chrysolepis
Quercus vacciniifolia | OAK-MOR-377 | USA : California,OAK-MOR-377,,YES,1,1,G11,MOR,OAK-MOR-377,Quercus vacciniifolia,Quercus vacciniifolia,Protobalanus,USA : California,CA-MH068,Wild collected,"California, USA; off US route 50 near pyramid creek trail head; prior to beginning of horsetail falls trail","MOR, UMN, DUKE, MX",174684,,,,,,,California,USA,38.811462,-120.123212,"Google earth, near pyramid creek trail along rt 50",YES,NO,,>OAK-MOR-377,vacciniifolia
Quercus chrysolepis | OAK-MOR-650 | USA : California,OAK-MOR-650,,yes,3,4,A12,MOR,OAK-MOR-650,Quercus chrysolepis,Quercus chrysolepis,Protobalanus,USA : California,CA-DAV-MH20,UC Davis Arboretum,CA: San Diego County: Banner Grade: Canyon. 3000 ft. Wayne Roderick s.n.,,,,,,,,,,,33.06889,-116.54528,"GEOLocate Web App. To Banner Grade (rd?) in San Diego Co., CA",NO,NO,,>OAK-MOR-650.barcodeStripped,chrysolepis
Quercus chrysolepis | OAK-MOR-474 | USA : California,OAK-MOR-474,,YES,1,1,A3,MOR,OAK-MOR-474,Quercus chrysolepis,Quercus chrysolepis,Protobalanus,USA : California,CA-MH070,Wild collected,"California, USA; off US route 50 downhill from Kibers Flts before mile marker 4617; in area with sign that says 4632. Side of road with pull-off area that contains a small strean.","MOR, UMN, DUKE, MX",174682,,http://quercus.lifedesks.org/node/992,,,,,California,USA,38.757996,-120.548892,Google Earth along route 50- placed between MH71 and MH68,YES,NO,,>OAK-MOR-474,chrysolepis
Quercus vacciniifolia | OAK-MOR-707 | USA : California,OAK-MOR-707,,,4,5,A10,MOR,OAK-MOR-707,Quercus vacciniifolia,Quercus vacciniifolia,Protobalanus,USA : California,FF-242,Rancho Santa Ana Botanical Garden,Rancho Santa Ana,,,,,,,,,,,NA,NA,,,,,>OAK-MOR-707.barcodeStripped,vacciniifolia
Quercus tomentella | OAK-MOR-133 | USA : California,OAK-MOR-133,,yes,3,4,C7,MOR,OAK-MOR-133,Quercus tomentella,Quercus tomentella,Protobalanus,USA : California,CA-DAV-MH14,UC Davis Arboretum,United States: CA: Santa Cruz Island: Collected at bottom of gorge of tributary leading to the southernmost drainage to China Harbor. Gankin s.n. 8 Sep 1968.,,174688,"voucher looked at by AH, approved",,,,,,,,34.023206,-119.765766,"Google earth to ~center of Santa Cruz island, CA",YES,NO,,>OAK-MOR-133.barcodeStripped,tomentella
Quercus tomentella | PM4 | USA : California,PM4,,YES,2,2,H12,DUKE,PM4,Quercus tomentella,Quercus tomentella,Protobalanus,USA : California,PM4,Rancho Santa Ana Botanical Garden,Collected from Rancho Santa Anna Botanic Garden.  Source info from RSABG : ???,,,,,,,,,,,38.059193,-121.339836,Not sure the provenance information from Rancho Santa Ana collection…  Im thowing it into the midpoint of California as the whole state of California seems to be tomentellas range.,NO,YES,,>PM4,tomentella
Quercus palmeri | OAK-MOR-135 | USA : California,OAK-MOR-135,,YES,1,1,E8,MOR,OAK-MOR-135,Quercus palmeri,Quercus palmeri,Protobalanus,USA : California,CA-DAV-MH023,UC Davis Arboretum,"Rancho Santa Ana Botanical Garden: Seed from plant in cultivation. Original collection info United States: CA: Riverside County: Original Coll. Vandeventer Flats, near entrance to Santa Rosa Indian Reservation, S. E. end of San Jacinto Mts. 4600 ft. Habitat: South-Oak Woodland in openslopes and among trees. P. E. Everett & E. K. Balls s.n. 18 Nov 1952.","MOR, UMN, DUKE, ND",174588,,http://quercus.lifedesks.org/node/991,,,,Riverside,California,USA,NA,NA,NA,NO,YES,,>OAK-MOR-135,palmeri
Quercus palmeri | OAK-MOR-708 |  : ,OAK-MOR-708,,,4,5,G9,MOR,OAK-MOR-708,Quercus palmeri,Quercus palmeri,Protobalanus, : ,FF-247,Rancho Santa Ana Botanical Garden,Rancho Santa Ana,,,,,,,,,,,NA,NA,,,,,>OAK-MOR-708.barcodeStripped,palmeri
Quercus palmeri | OAK-MOR-711 |  : ,OAK-MOR-711,,,4,5,C3,MOR,OAK-MOR-711,Quercus palmeri,Quercus palmeri,Protobalanus, : ,FF 248,Rancho Santa Ana Botanical Garden,,,,,,,,,,,,NA,NA,,,,,>OAK-MOR-711.barcodeStripped,palmeri
Quercus kelloggii | OAK-MOR-476 | USA : California,OAK-MOR-476,,YES,1,1,A6,MOR,OAK-MOR-476,Quercus kelloggii,Quercus kelloggii,Lobatae,USA : California,CA-MH069,Wild collected,"California, USA; Eagle Rock River Access El Dorado National Forest; uphill from Kibers Flat; of US route 50, by entry way on route to river.; sign in area that said 11N50","MOR, UMN, DUKE, MX",174683,,,,,,,California,USA,38.76833,-120.26722,GEOLocate web app,NO,YES,,>OAK-MOR-476,kelloggii
Quercus kelloggii | PM-5b | USA : California,PM-5b,,yes,3,4,F3,DUKE,PM-5b,Quercus kelloggii,Quercus kelloggii,Lobatae,USA : California,PM-5,Rancho Santa Ana Botanical Garden,Collected from Rancho Santa Anna Botanic Garden.  Source info from RSABG : ???,,,,,,,,,,,NA,NA,NA,NO,NO,,>PM-5b.barcodeStripped,kelloggii
Quercus agrifolia var. oxyadenia | OAK-MOR-127 | USA : California,OAK-MOR-127,,YES,2,2,A1,MOR,OAK-MOR-127,Quercus agrifolia var. oxyadenia,Quercus agrifolia var. oxyadenia,Lobatae,USA : California,CA-DAV-MH055,UC Davis Arboretum,"CA: San Diego Co; Potrero Grade: Ca 5 mi west if Potrero on a NW facing slope, 2000 ft, Wayne Roderick, sn","MOR, UMN, DUKE, ND",174697,,,,,,San Diego,California,USA,32.601494,-116.69697,Google earth; ~5 miles west of Potrero CA.,NO,YES,,>OAK-MOR-127,agrifolia
Quercus agrifolia | PM2 | USA : California,PM2,,YES,2,2,G12,DUKE,PM2,Quercus agrifolia,Quercus agrifolia,Lobatae,USA : California,PM2,Wild collected,"California, CA, 1416m elevation, collected by Paul Manos",,,,,,,,,California,USA,38.059193,-121.339836,?? Only have information to State level; just chose mid pt of California for time being…..,NO,YES,,>PM2,agrifolia
Quercus parvula | OAKS-MOR-492 | USA : California,OAKS-MOR-492,,YES,1,1,B1,MOR,OAK-MOR-492,Quercus parvula,Quercus parvula,Lobatae,USA : California,CA-DAV-MH019,UC Davis Arboretum,"CA: Santa Barbara County, Santa Cruz Island. Collected at head of canyon leading to southernmost tributary to China Harbor. Roman Gankin. 7 Sep 1968.","MOR, UMN, DUKE, ND",174675,,,,,,Santa Barbara,California,USA,34.011649,-119.745491,Google earth to santa cruz island,NO,NO,,>OAKS-MOR-492,parvula
Quercus wislizeni | OAK-MOR-516 | USA : California,OAK-MOR-516,,YES,1,1,H10,MOR,OAK-MOR-516,Quercus wislizeni,Quercus wislizeni,Lobatae,USA : California,ARAM s.n. D,Wild collected,"California, USA; 1 mile west of Lake County line in Mendocino City, on route 20, south side of road by driveway.",MOR,174680,,,n/a,n/a,,,California,USA,39.198371,-123.055976,Google Earth; 1 mile west on rt 20 past lake/mendocino county lines,NO,YES,,>OAK-MOR-516,wislizeni
Quercus wislizeni | OAK-MOR-517 | USA : California,OAK-MOR-517,,YES,1,1,A11,MOR,OAK-MOR-517,Quercus wislizeni,Quercus wislizeni,Lobatae,USA : California,CA-MH072,Wild collected,"California, USA; off US route 50 towards Davis, Point View Dr Exit, along exit ramp on left hand side","MOR, UMN, DUKE, MX",174674,,,,,,,California,USA,38.731754,-120.759651,Google Earth. Exit ramp area off US rt 50 and cross road point view dr.,NO,YES,,>OAK-MOR-517,wislizeni
Quercus scytophylla | OAK-UMN-180 | MEXICO : Michoacan,OAK-UMN-180,,YES,2,2,F11,UMN,OAK-UMN-180,Quercus scytophylla,Quercus scytophylla,Lobatae,MEXICO : Michoacan,JCB-MX-MI-ES-32,Wild collected,"Michoacan, Mexico; La Escalera","UMN, MOR",175910,,http://quercus.lifedesks.org/node/898,,,,,Michoacan,Mexico,19.466238,-100.488049,"Google earth to La Escalera, MI, Mx",NO,NO,,>OAK-UMN-180,scytophylla
Quercus scytophylla | OAK-UMN-268 | MEXICO : Oaxaca,OAK-UMN-268,,YES,2,2,B6,UMN,OAK-UMN-268,Quercus scytophylla,Quercus scytophylla,Lobatae,MEXICO : Oaxaca,JCB-MX-OA-PA-17,Wild collected,"Oaxaca, Mexico; Papalo",,175529,,,,,,,Oaxaca,Mexico,17.84560377,-96.89748287,GPS,NO,YES,,>OAK-UMN-268,scytophylla
Quercus hypoleucoides | OAK-MOR-410 | USA : Arizona,OAK-MOR-410,,YES,1,1,E5,MOR,OAK-MOR-410,Quercus hypoleucoides,Quercus hypoleucoides,Lobatae,USA : Arizona,AZ-CH-12,Wild collected,"Arizona, USA; Chiracauha Mountains Southern portion in Rucker Canyon","MOR, DUKE, ND, MX",174236,,,,,,,Arizona,USA,31.75647824,-109.2431153,GPS,NO,YES,,>OAK-MOR-410,hypoleucoides
Quercus hypoleucoides | OAK-MOR-416 | USA : Arizona,OAK-MOR-416,,YES,1,1,F5,MOR,OAK-MOR-416,Quercus hypoleucoides,Quercus hypoleucoides,Lobatae,USA : Arizona,AZ-HU-19,Wild collected,"Arizona, USA;  Huachuca Mountains - Carr Canyon Road","MOR, DUKE, ND, MX",174232,,,,,,,Arizona,USA,31.43396499,-109.2431153,GPS,NO,YES,,>OAK-MOR-416,hypoleucoides
Quercus crassifolia | OAK-UMN-243 | MEXICO : Michoacan,OAK-UMN-243,,YES,2,2,G11,UMN,OAK-UMN-243,Quercus crassifolia,Quercus crassifolia,Lobatae,MEXICO : Michoacan,JCB-MX-MI-AZ-95,,"Michoacan, Mexico","UMN, MOR",175892,,http://quercus.lifedesks.org/node/905,,,,,,,19.566735,-101.706762,"Google earth to Michoacan, Mexico.",NO,YES,,>OAK-UMN-243,crassifolia
Quercus crassifolia | OAK-UMN-060 | MEXICO : Jalisco,OAK-UMN-060,,YES,2,2,C8,UMN,OAK-UMN-060,Quercus crassifolia,Quercus crassifolia,Lobatae,MEXICO : Jalisco,JCB-MX-JA-TM-129,Wild collected,"Jalisco, Mexico; Tequila Montana","UMN, MOR",175908,,http://quercus.lifedesks.org/node/865,,,,,Jalisco,Mexico,20.79757227,-103.8545618,GPS,NO,NO,,>OAK-UMN-060,crassifolia
Quercus conzattii | OAK-UMN-257 | MEXICO : Oaxaca,OAK-UMN-257,,YES,2,2,E6,UMN,OAK-UMN-257,Quercus conzattii,Quercus conzattii,Lobatae,MEXICO : Oaxaca,JCB-MX-OA-TE-6,Wild collected,"Oaxaca, Mexico; Teotitlan",,175709,,,,,,,Oaxaca,Mexico,18.17986887,-97.04693288,GPS,NO,YES,,>OAK-UMN-257,conzattii
Quercus conzattii | OAK-UMN-255 | MEXICO : Oaxaca,OAK-UMN-255,,YES,2,2,D6,UMN,OAK-UMN-255,Quercus conzattii,Quercus conzattii,Lobatae,MEXICO : Oaxaca,JCB-MX-OA-TE-4,Wild collected,"Oaxaca, Mexico; Teotitlan",,175550,,,,,,,Oaxaca,Mexico,18.17986887,-97.04693288,GPS,NO,YES,,>OAK-UMN-255,conzattii
Quercus emoryi | OAK-MOR-414 | USA : Arizona,OAK-MOR-414,,YES,1,1,A4,MOR,OAK-MOR-414,Quercus emoryi,Quercus emoryi,Lobatae,USA : Arizona,AZ-HU-16,Wild collected,"Arizona, USA; Huachuca Mountains - Carr Canyon Road","MOR, DUKE, ND, MX",174231,,,,,,,Arizona,USA,31.44959506,-109.2431153,GPS,NO,YES,,>OAK-MOR-414,emoryi
Quercus peninsularis | OAK-MOR-713 |  : ,OAK-MOR-713,,,4,5,H9,MOR,OAK-MOR-713,Quercus peninsularis,Quercus peninsularis,Lobatae, : ,FF-244,Rancho Santa Ana Botanical Garden,Rancho Santa Ana,,,,,,,,,,,NA,NA,,,,,>OAK-MOR-713.barcodeStripped,peninsularis
Quercus eduardii | OAK-UMN-133 | MEXICO : Jalisco,OAK-UMN-133,,YES,1,1,E1,UMN,OAK-UMN-133,Quercus eduardii,Quercus eduardii,Lobatae,MEXICO : Jalisco,JCB-MX-JA-AT-202,Wild collected,"Jalisco, Mexico; Atotonilco","UMN, MOR",175904,,http://quercus.lifedesks.org/node/868,,,,,Jalisco,Mexico,20.66090123,-102.4734047,0,NO,NO,,>OAK-UMN-133,eduardii
Quercus eduardii | OAK-UMN-128 | MEXICO : Jalisco,OAK-UMN-128,,YES,1,1,D1,UMN,OAK-UMN-128,Quercus eduardii,Quercus eduardii,Lobatae,MEXICO : Jalisco,JCB-MX-JA-AT-197,Wild collected,"Jalisco, Mexico; Atotonilco","UMN, MOR",175906,,http://quercus.lifedesks.org/node/896,,,,,Jalisco,Mexico,20.66090123,-102.4734047,GPS,NO,YES,,>OAK-UMN-128,eduardii
Quercus castanea | OAK-UMN-079 | MEXICO : Jalisco,OAK-UMN-079,,YES,2,2,F10,UMN,OAK-UMN-079,Quercus castanea,Quercus castanea,Lobatae,MEXICO : Jalisco,JCB-MX-JA-MA-148,Wild collected,"Jalisco, Mexico","UMN, MOR",176041,,http://quercus.lifedesks.org/node/914,,,,,Jalisco,Mexico,19.63545836,-104.3307899,GPS,NO,YES,,>OAK-UMN-079,castanea
Quercus castanea | OAK-UMN-271 | MEXICO : Oaxaca,OAK-UMN-271,,YES,2,2,A9,UMN,OAK-UMN-271,Quercus castanea,Quercus castanea,Lobatae,MEXICO : Oaxaca,JCB-MX-OA-PA-20,Wild collected,"Oaxaca, Mexico; Papalo","UMN, MOR",175552,,http://quercus.lifedesks.org/node/883,,,,,Oaxaca,Mexico,17.84329087,-96.88743431,GPS,NO,YES,,>OAK-UMN-271,castanea
Quercus conspersa | OAK-UMN-297 | MEXICO : Oaxaca,OAK-UMN-297,,YES,2,2,B12,UMN,OAK-UMN-297,Quercus conspersa,Quercus conspersa,Lobatae,MEXICO : Oaxaca,JCB-MX-OA-SV-46,Wild collected,"Oaxaca, Mexico; ",,175708,,,,,,,Oaxaca,Mexico,16.48842378,-96.98358413,GPS,NO,NO,,>OAK-UMN-297,conspersa
Quercus conspersa | OAK-UMN-334 | MEXICO : Oaxaca,OAK-UMN-334,,YES,2,2,G8,UMN,OAK-UMN-334,Quercus conspersa,Quercus conspersa,Lobatae,MEXICO : Oaxaca,JCB-MX-OA-MI-83,Wild collected,"Oaxaca, Mexico; Mitla",,175513,,,,,,,Oaxaca,Mexico,16.98307551,-96.15391921,GPS,NO,YES,,>OAK-UMN-334,conspersa
Quercus candicans | OAK-UMN-103 | MEXICO : Jalisco,OAK-UMN-103,,YES,2,2,G10,UMN,OAK-UMN-103,Quercus candicans,Quercus candicans,Lobatae,MEXICO : Jalisco,JCB-MX-JA-NC-172,Wild collected,"Jalisco, Mexico","UMN, MOR",175903,,http://quercus.lifedesks.org/node/867,,,,,Jalisco,Mexico,19.61893318,-103.5619376,GPS,NO,YES,,>OAK-UMN-103,candicans
Quercus candicans | OAK-UMN-156 | MEXICO : Michoacan,OAK-UMN-156,,YES,2,2,C11,UMN,OAK-UMN-156,Quercus candicans,Quercus candicans,Lobatae,MEXICO : Michoacan,JCB-MX-MI-ZE-8,Wild collected,"Michoacan, Mexico; Lago Zirahuen - Seccione Alpina - on the path from the dock/restaurant up to the upper cabanas","UMN, MOR",175895,,http://quercus.lifedesks.org/node/890,,,,,Michoacan,Mexico,19.453344,-101.731678,Google Earth estimate to Lago Ziraheun,NO,YES,,>OAK-UMN-156,candicans
Quercus crassipes | OAK-UMN-173 | MEXICO : Michoacan,OAK-UMN-173,,YES,2,2,E11,UMN,OAK-UMN-173,Quercus crassipes,Quercus crassipes,Lobatae,MEXICO : Michoacan,JCB-MX-MI-SC-24,Wild collected,"Michoacan, Mexico; On road from Zirahuen to Sta Clara del Cobre","UMN, MOR",175913,,http://quercus.lifedesks.org/node/871,,,,,Michoacan,Mexico,19.412796,-101.70479,"Google Earth, mid point of road between Ziraheun and Santa Clara del Cobre",NO,YES,,>OAK-UMN-173,crassipes
Quercus crassipes | OAK-UMN-236 | MEXICO : Michoacan,OAK-UMN-236,,YES,2,2,D8,UMN,OAK-UMN-236,Quercus crassipes,Quercus crassipes,Lobatae,MEXICO : Michoacan,JCB-MX-MI-UM-88,Wild collected,"Michoacan, Mexico; Umecuaro","UMN, MOR",175893,,http://quercus.lifedesks.org/node/888,,,,,Michoacan,Mexico,19.528056,-101.255556,"Google of Umecuaro, Mexico",NO,YES,,>OAK-UMN-236,crassipes
Quercus gentryi | OAK-UMN-045 | MEXICO : Jalisco,OAK-UMN-045,,YES,2,2,H4,UMN,OAK-UMN-045,Quercus gentryi,Quercus gentryi,Lobatae,MEXICO : Jalisco,JCB-MX-JA-TM-114,Wild collected,"Jalisco, Mexico","UMN, MOR",175891,,http://quercus.lifedesks.org/node/866,,,,,Jalisco,Mexico,20.89629097,-105.4095188,GPS,NO,YES,,>OAK-UMN-045,gentryi
Quercus gentryi | OAK-UMN-047 | MEXICO : Jalisco,OAK-UMN-047,,YES,1,1,G1,UMN,OAK-UMN-047,Quercus gentryi,Quercus gentryi,Lobatae,MEXICO : Jalisco,JCB-MX-JA-TM-116,Wild collected,"Jalisco, Mexico; Tequila Montana","UMN, MOR",175912,,http://quercus.lifedesks.org/node/899,,,,,Jalisco,Mexico,20.89629097,-105.4095188,0,NO,NO,,>OAK-UMN-047,gentryi
Quercus affinis | OAK-UMN-399 | MEXICO,OAK-UMN-399,,YES,2,2,E12,UMN,OAK-UMN-399,Quercus affinis,Quercus affinis,Lobatae,MEXICO,JCB-MX-??-ZA-519,Wild collected,Mexico,,,,,,,,,#N/A,Mexico,NA,NA,NA,NO,NO,,>OAK-UMN-399,affinis
Quercus affinis | AGR34 | ,AGR34,,,4,5,C5,AGR,34,Quercus affinis,Quercus affinis,Lobatae,,AGR34,wild,,,,,,,,,,,,NA,NA,,,,,>AGR34.barcodeStripped,affinis
Quercus mexicana | OAK-MOR-488 | MEXICO : Nuevo Leon,OAK-MOR-488,,YES,1,1,C7,MOR,OAK-MOR-488,Quercus mexicana,Quercus mexicana,Lobatae,MEXICO : Nuevo Leon,IL-SH-018,Starhill Forest Arboretum,34 m; Languna de Sanchez; NL; 91,MOR-Oak street - photo voucher,,,http://quercus.lifedesks.org/node/916,,,,,Nuevo León,Mexico,25.349814,-100.28336,Google Earth to Languana de Sanchez,NO,YES,,>OAK-MOR-488,mexicana
Quercus mexicana | OAK-MOR-402 | MEXICO : Nuevo Leon,OAK-MOR-402,,YES,1,1,B7,MOR,OAK-MOR-402,Quercus mexicana,Quercus mexicana,Lobatae,MEXICO : Nuevo Leon,CA-DAV-MH028,UC Davis Arboretum,"Mexico: Nuevo Leon: Collected 35.1 miles from La Escondida.
McIntyre and Gankin 288. 8 Dec 1966.","MOR, UMN, DUKE, ND",174587,,,,,,,Nuevo León,Mexico,25.570426,-100.241695,"From google, I think this is south of Monterrey (between 2 mountain ranges ??? Coorinates from Google Earth.",NO,YES,,>OAK-MOR-402,mexicana
Quercus acutifolia | OAK-UMN-261 | MEXICO : Oaxaca,OAK-UMN-261,,YES,2,2,G9,UMN,OAK-UMN-261,Quercus acutifolia,Quercus acutifolia,Lobatae,MEXICO : Oaxaca,JCB-MX-OA-TE-10,Wild collected,"Oaxaca, Mexico; Teotitlan",,175555,,,,,,,Oaxaca,Mexico,18.17126887,-97.03584756,GPS,NO,NO,,>OAK-UMN-261,acutifolia
Quercus acutifolia | OAK-UMN-280 | MEXICO : Oaxaca,OAK-UMN-280,,YES,2,2,E8,UMN,OAK-UMN-280,Quercus acutifolia,Quercus acutifolia,Lobatae,MEXICO : Oaxaca,JCB-MX-OA-CA-29,Wild collected,"Oaxaca, Mexico; El Capulin",,175528,,,,,,,Oaxaca,Mexico,17.53687254,-96.95384472,GPS,NO,YES,,>OAK-UMN-280,acutifolia
Quercus crispifolia | OAK-UMN-304 | MEXICO : Oaxaca,OAK-UMN-304,,yes,3,4,D1,UMN,OAK-UMN-304,Quercus crispifolia ,Quercus crispifolia,Lobatae,MEXICO : Oaxaca,JCB-MX-OA-CP-53,Wild collected,,,175499,,,,,,,Oaxaca,Mexico,16.21648877,-97.13741175,GPS,NO,NO,,>OAK-UMN-304.barcodeStripped,crispifolia
Quercus pinnativenulosa | AGR-5 | MEXICO : Veracruz,AGR-5,,yes,3,4,H2,AGR,AGR-5,Quercus pinnativenulosa,Quercus pinnativenulosa,Lobatae,MEXICO : Veracruz,AGR-5-pinnativenulosa-1,Wild collected,"Veracruz, Mexico, Banderilla",,,,,,,,,Veracruz,Mexico,19.5901,-96.9434,GPS,NO,NO,,>AGR-5.barcodeStripped,pinnativenulosa
Quercus laurina | OAK-UMN-324 | MEXICO : Oaxaca,OAK-UMN-324,,YES,2,2,D9,UMN,OAK-UMN-324,Quercus laurina,Quercus laurina,Lobatae,MEXICO : Oaxaca,JCB-MX-OA-PO-73,Wild collected,"Oaxaca, Mexico; Pochutla",,175518,,,,,,,Oaxaca,Mexico,16.05967769,-96.50450883,GPS,NO,NO,,>OAK-UMN-324,laurina
Quercus pinnativenulosa | AGR6 | MEXICO,AGR6,,,4,5,F3,AGR,6,Quercus pinnativenulosa,Quercus pinnativenulosa,Lobatae,MEXICO,AGR6,wild,,,,,,,,,,,,NA,NA,,,,,>AGR6.barcodeStripped,pinnativenulosa
Quercus laurina | OAK-UMN-058 | MEXICO : Jalisco,OAK-UMN-058,,YES,2,2,E10,UMN,OAK-UMN-058,Quercus laurina,Quercus laurina,Lobatae,MEXICO : Jalisco,JCB-MX-JA-TM-127,Wild collected,"Jalisco, Mexico","UMN, MOR",175894,,http://quercus.lifedesks.org/node/889,,,,,Jalisco,Mexico,20.82177669,-103.8549576,GPS,NO,YES,,>OAK-UMN-058,laurina
Quercus delgadoana | AGR11 | ,AGR11,,,4,5,H3,AGR,11,Quercus delgadoana,Quercus delgadoana,Lobatae,,AGR11,wild,,,,,,,,,,,,NA,NA,,,,,>AGR11.barcodeStripped,delgadoana
Quercus sapotifolia | OAK-UMN-385 | Honduras,OAK-UMN-385,,YES,2,2,E5,UMN,OAK-UMN-385,Quercus sapotifolia,Quercus sapotifolia,Lobatae,Honduras,JCB-HN-UY-41,Wild collected,Honduras; Uyuca Mountain - Biological reserve,,176615,,,,,,,0,Honduras,14.03337799,-87.07390586,UTM converter,NO,YES,,>OAK-UMN-385,sapotifolia
Quercus sapotifolia | OAK-UMN-395 | Honduras,OAK-UMN-395,,YES,2,2,C10,UMN,OAK-UMN-395,Quercus sapotifolia,Quercus sapotifolia,Lobatae,Honduras,JCB-HN-UY-51,Wild collected,"Honduras, Uyuca Mountain - Biological reserve",,176603,,,,,,,,Honduras,14.01917778,-87.05631503,UTM converter,NO,NO,,>OAK-UMN-395,sapotifolia
Quercus lowilliamsii | AGR29 | MEXICO,AGR29,,,4,5,A5,AGR,29,Quercus lowilliamsii,Quercus lowilliamsii,Lobatae,MEXICO,AGR29,wild,,,,,,,,,,,,NA,NA,,,,,>AGR29.barcodeStripped,lowilliamsii
Quercus cortesii | OAK-UMN-374 | Honduras,OAK-UMN-374,,YES,1,1,A1,UMN,OAK-UMN-374,Quercus cortesii,Quercus cortesii,Lobatae,Honduras,JCB-HN-UY-30,Wild collected,Honduras; Uyuca Mountain - Biological reserve,MOR,176593,,,,,,,,Honduras,14.02737491,-87.07130156,UTM converter,NO,YES,,>OAK-UMN-374,cortesii
Quercus cortesii | OAK-UMN-356 | Honduras,OAK-UMN-356,,YES,2,2,B5,UMN,OAK-UMN-356,Quercus cortesii,Quercus cortesii,Lobatae,Honduras,JCB-HN-UY-11,Wild collected,Honduras; Uyuca Mountain - Biological reserve,,176584,,,,,,,0,Honduras,14.02504205,-87.07138419,UTM converter,NO,NO,,>OAK-UMN-356,cortesii
Quercus eugeniifolia | OAK-UMN-352 | Honduras,OAK-UMN-352,,YES,2,2,F5,UMN,OAK-UMN-352,Quercus eugeniifolia,Quercus eugeniifolia,Lobatae,Honduras,JCB-HN-UY-8,Wild collected,Honduras; Uyuca Mountain - Biological reserve,,176581,,,,,,,0,Honduras,14.02512347,-87.07124529,UTM converter,NO,YES,,>OAK-UMN-352,eugeniifolia
Quercus eugeniifolia | OAK-UMN-381 | Honduras,OAK-UMN-381,,YES,2,2,D5,UMN,OAK-UMN-381,Quercus eugeniifolia,Quercus eugeniifolia,Lobatae,Honduras,JCB-HN-UY-37,Wild collected,Honduras; Uyuca Mountain - Biological reserve,,176568,,,,,,,0,Honduras,14.02826089,-87.07173711,UTM converter,NO,NO,,>OAK-UMN-381,eugeniifolia
Quercus costaricensis | CR-JCB-1 | Costa Rica,CR-JCB-1,,yes,3,4,F1,UMN,CR-JCB-1,Quercus costaricensis,Quercus costaricensis,Lobatae,Costa Rica,CR-JCB-1,Wild collected,Costa Rica,,,,,,,,,,Costa Rica,9.886116,-83.921087,Google Earth to ~center of Costa Rica,NO,NO,,>CR-JCB-1.barcodeStripped,costaricensis
Quercus costaricensis | CR-JCB-2 | Costa Rica : ,CR-JCB-2,,yes,3,4,G1,UMN,CR-JCB-2,Quercus costaricensis,Quercus costaricensis,Lobatae,Costa Rica : ,CR-JCB-2,Wild collected,Costa Rica,,,,,,,,,,Costa Rica,9.886116,-83.921087,Google Earth to ~center of Costa Rica,NO,NO,,>CR-JCB-2.barcodeStripped,costaricensis
Quercus iltisii | OAK-UMN-323 | MEXICO : Oaxaca,OAK-UMN-323,,YES,2,2,C12,UMN,OAK-UMN-323,Quercus iltisii,Quercus iltisii,Lobatae,MEXICO : Oaxaca,JCB-MX-OA-PO-72,Wild collected,"Oaxaca, Mexico","UMN, MOR",175548,,http://quercus.lifedesks.org/node/882,,,,,Oaxaca,Mexico,16.02712682,-96.51428875,GPS,NO,YES,,>OAK-UMN-323,iltisii
Quercus crispifolia | OAK-UMN-314 | MEXICO : Oaxaca,OAK-UMN-314,,YES,2,2,C9,UMN,OAK-UMN-314,Quercus crispifolia,Quercus crispifolia,Lobatae,MEXICO : Oaxaca,JCB-MX-OA-PO-63,Wild collected,"Oaxaca, Mexico; Pochutla",,175546,,,,,,,Oaxaca,Mexico,15.96251316,-96.45862235,GPS,NO,YES,,>OAK-UMN-314,crispifolia
Quercus elliptica | OAK-UMN-311 | MEXICO : Oaxaca,OAK-UMN-311,,YES,2,2,C6,UMN,OAK-UMN-311,Quercus elliptica,Quercus elliptica,Lobatae,MEXICO : Oaxaca,JCB-MX-OA-PO-60,Wild collected,"Oaxaca, Mexico; Pochutla",,175497,,,,,,,Oaxaca,Mexico,15.96032917,-96.46176145,GPS,NO,YES,,>OAK-UMN-311,elliptica
Quercus elliptica | OAK-UMN-346 | Honduras,OAK-UMN-346,,YES,2,2,A5,UMN,OAK-UMN-346,Quercus elliptica,Quercus elliptica,Lobatae,Honduras,JCB-HN-TA-3,Wild collected,Honduras; Las Tablas,,176579,,,,,,,0,Honduras,14.01246365,-87.0347178,UTM converter,NO,NO,,>OAK-UMN-346,elliptica
Quercus planipocula | OAK-MOR-495 | MEXICO : Nayarit,OAK-MOR-495,,YES,1,1,D11,MOR,OAK-MOR-495,Quercus planipocula,Quercus planipocula,Lobatae,MEXICO : Nayarit,IL-SH-082,Starhill Forest Arboretum,Nayarit; 15 k N. of Compostella ; Mexico; 1025m; 21-20-43N/104-55-25W(100595-5),MOR-Oak street,NONE,,,,,,,Nayarit,Mexico,21.34527,-104.9236,GPS in provenance info,NO,YES,,>OAK-MOR-495,planipocula
Quercus uxoris | OAK-UMN-066 | MEXICO : Jalisco,OAK-UMN-066,,YES,2,2,G7,UMN,OAK-UMN-066,Quercus uxoris,Quercus uxoris,Lobatae,MEXICO : Jalisco,JCB-MX-JA-MA-135,Wild collected,"Jalisco, Mexico; Manantlan","UMN, MOR",175907,,http://quercus.lifedesks.org/node/897,,,,,Jalisco,Mexico,20.81070947,-103.8647085,GPS,NO,YES,,>OAK-UMN-066,uxoris
Quercus uxoris | OAK-UMN-067 | MEXICO : Jalisco,OAK-UMN-067,,yes,3,4,C1,UMN,OAK-UMN-067,Quercus uxoris,Quercus uxoris,Lobatae,MEXICO : Jalisco, JCB-MX-JA-MA-136,Wild collected,,,,,,,,,,Jalisco,Mexico,20.81070947,-103.8647085,GPS,NO,NO,,>OAK-UMN-067.barcodeStripped,uxoris
Quercus canbyi | OAK-MOR-443 | MEXICO : Monterrey,OAK-MOR-443,,YES,2,2,B1,MOR,OAK-MOR-443,Quercus canbyi,Quercus canbyi,Lobatae,MEXICO : Monterrey,IL-SH-133,Starhill Forest Arboretum,"34M42S100991, Chioinque Monterrey, 3000 ft, 91",MOR-Oak street - photo voucher,,,http://quercus.lifedesks.org/node/919,,,Monterrey,,,Mexico,25.643758,-100.21169,"Google earth to Chipinque Monterrey, NL, Mexico",NO,NO,,>OAK-MOR-443,canbyi
Quercus canbyi | OAK-MOR-543 | MEXICO : CULTIVATED,OAK-MOR-543,,YES,2,2,C1,MOR,OAK-MOR-543,Quercus canbyi,Quercus canbyi,Lobatae,MEXICO : CULTIVATED,IL-SH-132,Starhill Forest Arboretum,Ex horto Addison TX DROO<-(cultivated),MOR-Oak street - photo voucher,,,http://quercus.lifedesks.org/node/920,,,,,,,NA,NA,NA,NO,YES,,>OAK-MOR-543,canbyi
Quercus shumardii | OAK-MOR-169 | USA : Oklahoma,OAK-MOR-169,,yes,3,4,H6,MOR,OAK-MOR-169,Quercus shumardii,Quercus shumardii,Lobatae,USA : Oklahoma,IL-SH-111,Starhill Forest Arboretum,"I40 Mile 107; Ok, Canadian Co, USA",,175235,"voucher looked at by AH, approved",,,,,Canadian,Oklahoma,USA,35.554825,-97.978526,"Google earth to Canadian Co, OK",NO,NO,,>OAK-MOR-169.barcodeStripped,shumardii
Quercus shumardii | OAK-MOR-687 | USA : Oklahoma,OAK-MOR-687,,yes,3,4,A10,MOR,OAK-MOR-687,Quercus texana,Quercus shumardii,Lobatae,USA : Oklahoma,IL-MOR-tex1,The Morton Arboretum,"Cultivated. Seed from Charles C. Deam in Platt National Park, Oklahoma, U.S.A.. Habitat: base of wooded slope ",,,,,,,,,,,NA,NA,NA,NO,NO,,>OAK-MOR-687.barcodeStripped,shumardii
Quercus shumardii | OAK-MOR-419 | USA : Missouri,OAK-MOR-419,,YES,1,1,F9,MOR,OAK-MOR-419,Quercus shumardii,Quercus shumardii,Lobatae,USA : Missouri,IL-MOR-MH090,The Morton Arboretum,"collected by: Peter J. van der Linden, The Morton Arboretum;  at overlook along state highway 76 near Branson in Henning State Forest in Taney County Missouri U.S.A.. (36.656944, -93.294722)","MOR, UMN(2), DUKE, ND, MX",174507,,,,,,Taney,Missouri,USA,36.656944,-93.294722,GPS in provenance info,NO,YES,,>OAK-MOR-419,shumardii
Quercus acerifolia | OAK-MOR-689 | USA : Arkansas,OAK-MOR-689,,yes,3,4,H10,MOR,OAK-MOR-689,Quercus acerifolia ,Quercus acerifolia,Lobatae,USA : Arkansas,IL-MOR-MH235,The Morton Arboretum,"Cultivated. Plant from Everett C. Logue, ARNOLD ARB., Peters Hill plant",,,,,,,,,,,NA,NA,NA,NO,NO,,>OAK-MOR-689.barcodeStripped,acerifolia
Quercus acerifolia | OAK-MOR-435 | USA : Arkansas,OAK-MOR-435,,YES,1,1,A2,MOR,OAK-MOR-435,Quercus acerifolia,Quercus acerifolia,Lobatae,USA : Arkansas,IL-SH-022,Starhill Forest Arboretum,"Sebastian Co., AR, USA",MOR,175315,,http://quercus.lifedesks.org/node/946,http://quercus.lifedesks.org/pages/303,,,Sebastian,Arkansas,USA,35.594167,-94.258056,website /geoHack for Sebastian Co,NO,YES,,>OAK-MOR-435,acerifolia
Quercus buckleyi | OAK-MOR-441A | USA : Texas,OAK-MOR-441A,,YES,2,2,F1,MOR,OAK-MOR-441A,Quercus buckleyi,Quercus buckleyi,Lobatae,USA : Texas,IL-SH-158,Starhill Forest Arboretum,"San Antonio Botanic Gard.; San Antonio,  TX, USA ",MOR,175398,,,http://quercus.lifedesks.org/node/520,http://quercus.lifedesks.org/node/521,,,,,NA,NA,"mentions san antonio botanic garden, so not sure…",NO,NO,,>OAK-MOR-441A,buckleyi
Quercus buckleyi | OAK-MOR-226 | USA : Texas,OAK-MOR-226,,YES,1,1,G2,MOR,OAK-MOR-226,Quercus buckleyi,Quercus buckleyi,Lobatae,USA : Texas,IL-SH-053,Starhill Forest Arboretum,Walde Co; TX,MOR-tiny + photos,,,,,,,Walde,Texas,USA,31.483419,-97.514466,"Nothing that looks like Walde county exists in texas,  there is some reference to a Waldo, Texas which is in McLennan County, which is within the species range for Q. buckleyi. Am using this as location?? (Waldo Rd, tx, usa)",NO,YES,,>OAK-MOR-226,buckleyi
Quercus rubra | PM150 | USA : ,PM150,,yes,3,4,B5,DUKE,PM150,Quercus rubra,Quercus rubra,Lobatae,USA : ,PM150,Wild collected,,,,,,,,,,,USA,35.047043,-83.186868,PM gps info,NO,NO,,>PM150.barcodeStripped,rubra
Quercus rubra | OAK-MOR-498 | USA : Illinois,OAK-MOR-498,,YES,2,2,A3,MOR,OAK-MOR-498,Quercus rubra,Quercus rubra,Lobatae,USA : Illinois,IL-MOR-MH085,The Morton Arboretum,"collected by: Edward A. Hedborn, The Morton Arboretum;  from above Sauk Lake in Sauk Trail Forest Preserve in Cook County Illinois U.S.A.","MOR, UMN, DUKE, ND",174465,,,,,,Cook,Illinois,USA,41.486556,-87.79976,Google Earth to Sauk Lake Forest Preserve,NO,YES,,>OAK-MOR-498,rubra
Quercus coccinea | OAK-MOR-JW-2604 | USA : Illinois,OAK-MOR-JW-2604,,YES,1,1,D10,MOR,OAK-MOR-JW-2604,Quercus coccinea,Quercus coccinea,Lobatae,USA : Illinois,JW2604,Wild collected,"Gallatin, Illinois, USA; Shawnee Pounds Hollow.",MOR,162052,*Being thrown out of RAD analysis- doesnt fit-- need more samples…,,,,,Gallatin,Illinois,USA,37.6154,-88.271083,GPS,NO,YES,,>OAK-MOR-JW-2604,coccinea
Quercus coccinea | OAK-MOR-423 | USA : New Jersey,OAK-MOR-423,,yes,3,4,E5,MOR,OAK-MOR-423,Quercus coccinea,Quercus coccinea,Lobatae,USA : New Jersey,IL-MOR-MH89,The Morton Arboretum,"collected by: Douglas Goldman, Harvard University Herbarium;   in Middlesex? County New Jersey U.S.A.",,174509,"verified det by AH, voucher + looking at tree in LC",,,,,Middlesex,New Jersey,USA,40.428166,-74.394271,"Google earth to middle of Middlesex Co, NJ",NO,NO,,>OAK-MOR-423.barcodeStripped,coccinea
Quercus coccinea | OAK-MOR-405 | USA : Missouri,OAK-MOR-405,,yes,3,4,D5,MOR,OAK-MOR-405,Quercus coccinea,Quercus coccinea,Lobatae,USA : Missouri,IL-MOR-MH81,The Morton Arboretum,"collected by: Midwest Plant Collecting Collaborative (MWPCC) 2004 Ozark Expedi;  west edge of Hawn State Park   in St. Genevieve County Missouri U.S.A.. (37.827556, -90.258417, 939 ft)",,174546,"verified det by AH, voucher + looking at tree in LC",,,,,Genevieve,Missouri,USA,37.827556,-90.258417,GPS,NO,NO,,>OAK-MOR-405.barcodeStripped,coccinea
Quercus ellipsoidalis | OAK-MOR-489 | USA : Iowa,OAK-MOR-489,,YES,1,1,H3,MOR,OAK-MOR-489,Quercus ellipsoidalis,Quercus ellipsoidalis,Lobatae,USA : Iowa,IL-MOR-MH107,The Morton Arboretum,"From seeds wild collected by The Morton Arbortem in Bluffton Township, Winneshiek County, Iowa, U.S.A.  ","MOR, UMN(2), DUKE, ND, MX",174545,,,,,,Winneshiek,Iowa,USA,43.230264,-91.924173,"Google earth Winneshiek County, Iowa",NO,YES,,>OAK-MOR-489,ellipsoidalis
Quercus ellipsoidalis | OAK-MOR-390 | USA : Illinois,OAK-MOR-390,,YES,1,1,G3,MOR,OAK-MOR-390,Quercus ellipsoidalis,Quercus ellipsoidalis,Lobatae,USA : Illinois,IL-MOR-MH087,The Morton Arboretum,"collected by: Peter van der Linden & Ed Hedborn, The Morton Arboretum;  due southwest of Apple River Canyon State Park in Jo Daviess County Illinois U.S.A.","MOR, UMN(2), DUKE, ND, MX",174547,,,,,,Jo Daviess,Illinois,USA,42.447578,-90.057799,Google earth to Apple River Canyon State Park,NO,YES,,>OAK-MOR-390,ellipsoidalis
Quercus velutina | OAK-MOR-167 | USA : Illinois,OAK-MOR-167,,yes,3,4,E6,MOR,OAK-MOR-167,Quercus velutina,Quercus velutina,Lobatae,USA : Illinois,IL-SH-113,Starhill Forest Arboretum/wild,"SHF spontaneous; Petersburg, IL, USA",,175236,"voucher looked at by AH, approved",,,,Petersburg,Mendard,Illinois,USA,39.93496,-89.80161,GPS,NO,NO,,>OAK-MOR-167.barcodeStripped,velutina
Quercus velutina | OAK-MOR-393 | USA : Illinois,OAK-MOR-393,,YES,1,1,C10,MOR,OAK-MOR-393,Quercus velutina,Quercus velutina,Lobatae,USA : Illinois,IL-MOR-MH076,The Morton Arboretum,"collected by: Peter J. van der Linden, The Morton Arboretum;  along Merioneth Road  in Will County Illinois U.S.A.","MOR, UMN(2), DUKE, ND, MX",174524,,,http://quercus.lifedesks.org/node/513,http://quercus.lifedesks.org/node/514,,Will,Illinois,USA,41.469049,-88.081892,"Google earth to Will Co. , IL",NO,YES,,>OAK-MOR-393,velutina
Quercus georgiana | PM-101a | USA : North Carolina,PM-101a,,yes,3,4,F4,DUKE,PM-101a,Quercus georgiana,Quercus georgiana,Lobatae,USA : North Carolina,PM-101,Wild collected,"Collected by D. Campbell in North Carolina, USA",,,,,,,,,North Carolina,USA,35.267294,-81.855269,PM gps info,NO,NO,,>PM-101a.barcodeStripped,georgiana
Quercus georgiana | OAK-MOR-686 | USA : Georgia,OAK-MOR-686,,yes,3,4,C10,MOR,OAK-MOR-686,Quercus georgiana,Quercus georgiana,Lobatae,USA : Georgia,IL-MOR-MH221,The Morton Arboretum,"From seed wild collected by Guy Sternberg, Starhill Forest Arboretum. Site: on Stone Mountain, De Kalb County, Georgia, U.S.A. ",,,I think this may be the same accession that we collected acorns from in Fall 2013,,,,,De Kalb,Georgia,USA,33.80611,-84.14583,GEOLocate Web App.,NO,NO,,>OAK-MOR-686.barcodeStripped,georgiana
Quercus imbricaria | OAK-MOR-391 | USA : Illinois,OAK-MOR-391,,YES,1,1,G5,MOR,OAK-MOR-391,Quercus imbricaria,Quercus imbricaria,Lobatae,USA : Illinois,IL-MOR-MH088,The Morton Arboretum,collected by: Michael E. Lenart  in Clay County Illinois U.S.A.,"MOR, UMN(2), DUKE, ND, MX",174464,,,,,,Clay,Illinois,USA,38.742718,-88.562463,"Google Earth to Clay Count, IL",NO,YES,,>OAK-MOR-391,imbricaria
Quercus imbricaria | OAK-MOR-421 | USA : Missouri,OAK-MOR-421,,YES,1,1,H5,MOR,OAK-MOR-421,Quercus imbricaria,Quercus imbricaria,Lobatae,USA : Missouri,IL-MOR-MH093,The Morton Arboretum,"collected by: J. C. Trager, Shaw Nature Reserve;  Shaw Nature Reserve and along I-44 roadside in Franklin County Missouri U.S.A.. (38.47375, -90.807083, 663 ft)","MOR, UMN(2), DUKE, ND, MX",174542,,,,,,Franklin,Missouri,USA,38.47375,-90.807083,GPS in provenance info,NO,YES,,>OAK-MOR-421,imbricaria
Quercus pagoda | OAK-MOR-354 | USA : Indiana,OAK-MOR-354,,YES,1,1,D8,MOR,OAK-MOR-354,Quercus pagoda,Quercus pagoda,Lobatae,USA : Indiana,IL-MOR-MH002,The Morton Arboretum,collected by: Charles C. Deam;   in Posey County Indiana U.S.A.,"(2A): MOR;                                                (2B): MOR, UMN(2), DUKE, ND, MX","2A: 174528 (flower, imm.leaves);  2B: 174511 (mature leaves)",Collected leaves for DNA at same time as collected 2A (in flower); returned to collect 2B for mature leaves; labeled/tagged tree,,http://quercus.lifedesks.org/node/985,,,Posey,Indiana,USA,38.000455,-87.894178,"Google Earth to Posey County, Indiana",NO,YES,,>OAK-MOR-354,pagoda
Quercus pagoda | PM-10b | USA : North Carolina,PM-10b,,yes,3,4,G3,DUKE,PM-10b,Quercus pagoda,Quercus pagoda,Lobatae,USA : North Carolina,PM-10,Wild collected,Durham county; 3658 Pineview Circle,,,,,,,,Durham,North Carolina,USA,35.976736,-78.98655,PM gps info,NO,NO,,>PM-10b.barcodeStripped,pagoda
Quercus ilicifolia | PM-80b | USA : New York,PM-80b,,yes,3,4,C3,DUKE,PM-80b,Quercus ilicifolia,Quercus ilicifolia,Lobatae,USA : New York,PM-80,Wild collected,"Suffolk County; west hempstead pine plains, on nature trail nearcounty water park",,,,,,,,Suffolk,New York,USA,40.86101,-71.35526,GPS,NO,NO,,>PM-80b.barcodeStripped,ilicifolia
Quercus laurifolia | OAK-UMN-010 | USA : Florida,OAK-UMN-010,,YES,2,2,B10,UMN,OAK-UMN-010,Quercus laurifolia,Quercus laurifolia,Lobatae,USA : Florida,JCB-US-FL-SF-LA-2,Wild collected,"Florida, USA; San Felasco-around edge of swamp lake to east of FL-LAU-1-in water of swamp lake-surrounded by floodplain forest, @ edge of Sanchez Prairie-18DBH-60+tall-near rigging.","UMN, MOR",175168,,,,,,,Florida,USA,29.74675,-82.45851667,GPS,NO,NO,,>OAK-UMN-010,laurifolia
Quercus laurifolia | OAK-UMN-009 | USA : Florida,OAK-UMN-009,,YES,2,2,F3,UMN,OAK-UMN-009,Quercus laurifolia,Quercus laurifolia,Lobatae,USA : Florida,JCB-US-FL-SF-LA-1,Wild collected,"San Felasco, Florida, USA; accessed byOld Spanish Way or power lines-off trail- in water of a swamp lake- surrounded by floodplain forest, @ edge of Sanchez Prairie-16-17DBH-5+tall",,175167,,,,,,,Florida,USA,29.74618333,-82.45951667,GPS,NO,YES,,>OAK-UMN-009,laurifolia
Quercus elliottii | OAK-UMN-015 | USA : Florida,OAK-UMN-015,,YES,2,2,C7,UMN,OAK-UMN-015,Quercus elliottii = Quercus pumila ??,Quercus elliottii,Lobatae,USA : Florida,JCB-US-FL-SF-ET-2,Wild collected,"Florida ,United States; San Felasco (millhopper access)-north side of trail-just west of FL-PUM-1 [=FL-ET-1] -extensive clone-18 high-more shaded site than FL-PUM-1-w/ cleaner darker green foliage (fewer rust spots)-slightly larger foliage than FL-PUM-1 ","UMN, MOR",175166,,,,,,,Florida,USA,29.715133,-82.4465,GPS,NO,NO,,>OAK-UMN-015,elliottii
Quercus elliottii | OAK-UMN-014 | USA : Florida,OAK-UMN-014,,YES,2,2,A10,UMN,OAK-UMN-014,Quercus elliottii,Quercus elliottii,Lobatae,USA : Florida,JCB-US-FL-SF-ET-1,Wild collected,"Florida, USA; San Felasco (millhopper access)-located on burn site of upland pine forest-north side of trail-near fencing of a development-sessile acorns present-extensive clone-18 high-more open site than FL-PUM-2-foliar rust spots.","UMN, MOR",175165,,,,,,,Florida,USA,29.715217,-82.44625,GPS,NO,YES,,>OAK-UMN-014,elliottii
Quercus phellos | OAK-MOR-461 | USA : Illinois,OAK-MOR-461,,,3,4,B7,MOR,OAK-MOR-461 ,Quercus phellos,Quercus phellos,Lobatae,USA : Illinois,IL-SH-156,Starhill Forest Arboretum,"Fort Massac State Park; Massac Co. Metropolis, IL, USA",,175320,"This was an ethanol precipitation and merging of tubes OAKS-MOR-461 + OAKS-MOR-257; voucher looked at by Ah, approved",,,,,,,,37.14389,-88.68722,GEOLocate Web App.,NO,NO,,>OAK-MOR-461.barcodeStripped,phellos
Quercus phellos | PM148 | USA : ,PM148,,yes,3,4,C5,DUKE,PM148,Quercus phellos,Quercus phellos,Lobatae,USA : ,PM148,Wild collected,,,,,,,,,,,USA,36.018276,-78.922405,PM gps info,NO,NO,,>PM148.barcodeStripped,phellos
Quercus hemisphaerica | PM-47b | USA : North Carolina,PM-47b,,yes,3,4,B4,DUKE,PM-47b,Quercus hemisphaerica,Quercus hemisphaerica,Lobatae,USA : North Carolina,PM-47,Wild collected,Bladen County; south of Singletary Lake State Park,,,,,,,,Bladen,North Carolina,USA,34.51688,-78.4102,GPS,NO,NO,,>PM-47b.barcodeStripped,hemisphaerica
Quercus myrtifolia | OAK-UMN-012 | USA : Florida,OAK-UMN-012,,yes,3,4,B1,UMN,OAK-UMN-012,Quercus myrtifolia,Quercus myrtifolia,Lobatae,USA : Florida,JCB-US-FL-RR-MY-1,Wild collected,,,175163,,,,,,,Florida,USA,29.900183,-82.5802,lat/long convertor of GPS to decimal degrees,NO,NO,,>OAK-UMN-012.barcodeStripped,myrtifolia
Quercus myrtifolia | OAK-UMN-013 | USA : Florida,OAK-UMN-013,,YES,2,2,E4,UMN,OAK-UMN-013,Quercus myrtifolia,Quercus myrtifolia,Lobatae,USA : Florida,JCB-US-FL-AB-MY-2,Wild collected,"Florida, United States",,175164,,,,,,,Florida,USA,27.18286667,-81.35188333,GPS,NO,NO,,>OAK-UMN-013,myrtifolia
Quercus inopina | OAK-UMN-007 | USA : Florida,OAK-UMN-007,,YES,2,2,C4,UMN,OAK-UMN-007,Quercus inopina,Quercus inopina,Lobatae,USA : Florida,JCB-US-FL-AB-IP-1,Wild collected,"Florida, USA; Archbold Biological Station- area has not been burned in a few yrs. -Mature foliage. 3-4 high-curled & cupped -upright reaching limbs- w/acorns. Extensive clones.","UMN, MOR",175158,,,,,,,Florida,USA,27.18376667,-81.35301667,GPS,NO,NO,,>OAK-UMN-007,inopina
Quercus inopina | OAK-UMN-008 | USA : Florida,OAK-UMN-008,,YES,2,2,A7,UMN,OAK-UMN-008,Quercus inopina,Quercus inopina,Lobatae,USA : Florida,JCB-US-FL-AB-IP-2,Wild collected,"Florida ,United States; Archbold Biological Station-site burned quite recently -Juvenile foliage flushing @ groundline.12-18 high-bright green-above ground limbs dead from fire. Extensive clones. ","UMN, MOR",175159,,,,,,,Florida,USA,27.1749,-81.36333333,GPS,NO,YES,,>OAK-UMN-008,inopina
Quercus hemisphaerica | PM178 | ,PM178,,,4,5,C12,DUKE,PM178,Quercus hemisphaerica,Quercus hemisphaerica,,,PM178,wild,,,,,,,,,,,,NA,NA,,,,,>PM178.barcodeStripped,hemisphaerica
Quercus incana | PM-49 | USA : North Carolina,PM-49,,yes,3,4,C4,DUKE,PM-49,Quercus incana,Quercus incana,Lobatae,USA : North Carolina,PM-49,Wild collected,Bladen County; south of Singletary Lake State Park,,,,,,,,Bladen,North Carolina,USA,34.446883,-78.2203,GPS,NO,NO,,>PM-49.barcodeStripped,incana
Quercus incana | PM-104a | USA : Florida,PM-104a,,yes,3,4,D3,DUKE,PM-104a,Quercus incana,Quercus incana,Lobatae,USA : Florida,PM-104,Wild collected,"Collected by Jeannine Cavendar Bares in FL, USA. IN 54",,,,,,,,,Florida,USA,31.302791,-89.441459,PM gps info,NO,NO,,>PM-104a.barcodeStripped,incana
Quercus nigra | OAK-MOR-256 | USA : Mississippi,OAK-MOR-256,,yes,3,4,G6,MOR,OAK-MOR-256,Quercus nigra,Quercus nigra,Lobatae,USA : Mississippi,IL-SH-157,Starhill Forest Arboretum,"Elephant Valley Farm, Canton, MS, USA",,175230,"voucher looked at by AH, approved",,,,Canton,Madison,Mississippi,USA,32.640488,-90.092475,"Elephant Valley Enterprises has address of 633 Heindl R. Canton, MS 39046--- going with this as the ",NO,NO,,>OAK-MOR-256.barcodeStripped,nigra
Quercus nigra | PM147 | ,PM147,,yes,3,4,A5,DUKE,PM147,Quercus nigra,Quercus nigra,Lobatae,,PM147,Wild collected,,,,,,,,,,,USA,36.016044,-78.931919,PM gps info,NO,NO,,>PM147.barcodeStripped,nigra
Quercus arkansana | OAK-MOR-509 | USA : Georgia,OAK-MOR-509,,YES,2,2,D1,MOR,OAK-MOR-509,Quercus arkansana,Quercus arkansana,Lobatae,USA : Georgia,IL-SH-092,Starhill Forest Arboretum,"Webster Co., GA,  USA",MOR,175321,,http://quercus.lifedesks.org/node/1003,,,,Webster,Georgia,USA,32.034677,-84.53805,"Google earth to middle of Webster Co, GA",NO,NO,,>OAK-MOR-509,arkansana
Quercus arkansana | OAK-MOR-510 | USA : Louisiana,OAK-MOR-510,,YES,1,1,B12,MOR,OAK-MOR-510,Quercus arkansana,Quercus arkansana,Lobatae,USA : Louisiana,IL-SH-166,Starhill Forest Arboretum,Bodcaw Ck.; Sarepta; LA; USA,MOR,175251,,,http://quercus.lifedesks.org/node/517,http://quercus.lifedesks.org/node/516,,Bodcaw,Louisiana,USA,32.892918,-93.448506,"Google Earth to Sarepta, Louisiana",NO,YES,,>OAK-MOR-510,arkansana
Quercus laevis | OAK-MOR-683 | USA : Florida,OAK-MOR-683,,yes,3,4,G9,MOR,OAK-MOR-683,Quercus laevis,Quercus laevis,Lobatae,USA : Florida,FL-PA-KS1,Wild collected,"Panana City, FL.  Parkway Tree",MOR,177661,,,,,,,,,30.156314,-85.652707,Google earth to street address,NO,NO,,>OAK-MOR-683.barcodeStripped,laevis
Quercus laevis | PM179 | USA,PM179,,,4,5,B12,DUKE,PM179,Quercus laevis,Quercus laevis,,USA,PM179,Wild,,,,,,,,,,,,NA,NA,,,,,>PM179.barcodeStripped,laevis
Quercus marilandica | OAK-MOR-527 | USA : Missouri,OAK-MOR-527,,YES,1,1,E12,MOR,OAK-MOR-527,Quercus marilandica,Quercus marilandica,Lobatae,USA : Missouri,IL-MOR-MH012,The Morton Arboretum,"collected by: Midwest Plant Collecting Collaborative (MWPCC) 2004 Ozark Expedi;  along I-44 roadside, old Rte 66 in Franklin County Missouri U.S.A.. (38.265389, -91.111361, 922 ft)",MOR,174541,,,,,,Franklin,Missouri,USA,38.265389,-91.111361,GPS in provenance info,NO,YES,,>OAK-MOR-527,marilandica
Quercus marilandica | PM-12b | USA : North Carolina,PM-12b,,yes,3,4,H3,DUKE,PM-12b,Quercus marilandica,Quercus marilandica,Lobatae,USA : North Carolina,PM-12,Wild collected,Durham county; Intersection Randolph Rd & Stonegate,,,,,,,,Durham,North Carolina,USA,35.983098,-78.989951,PM gps info,NO,NO,,>PM-12b.barcodeStripped,marilandica
Quercus falcata | OAK-UMN-005 | USA : Florida,OAK-UMN-005,,YES,2,2,B4,UMN,OAK-UMN-005,Quercus falcata,Quercus falcata,Lobatae,USA : Florida,JCB-US-FL-SF-FA-1,Wild collected,"Florida, United States",,175170,,,,,,,Florida,USA,29.73975,-82.46201667,GPS,NO,YES,,>OAK-UMN-005,falcata
Quercus falcata | OAK-MOR-68 | USA : Arkansas,OAK-MOR-68,,yes,3,4,G5,MOR,OAK-MOR-68,Quercus falcata,Quercus falcata,Lobatae,USA : Arkansas,IL-MOR-MH100,The Morton Arboretum,"collected by: Midwest Plant Collecting Collaborative (MWPCC) 2004 Ozark Expedi;  Village Creek State Park near visitor center parking lot in Cross County Arkansas U.S.A.. (35.162806, -90.7175, 307 ft)",,174536,ethanol precip of 68 + 384; photos 1 and 2 are more mature leaves than voucher image (revisiting tree in Aug 2013 for mature leave images),http://quercus.lifedesks.org/node/986,http://quercus.lifedesks.org/node/943,http://quercus.lifedesks.org/node/944,,Cross,Arkansas,USA,35.162806,-90.7175,GPS,NO,NO,,>OAK-MOR-68.barcodeStripped,falcata
Quercus texana 'New Madrid' | OAK-MOR-490 | USA : Missouri,OAK-MOR-490,,YES,1,1,H7,MOR,OAK-MOR-490,Quercus nuttallii New Madrid = Q. texana New Madrid,Quercus texana 'New Madrid',Lobatae,USA : Missouri,IL-SH-112,Starhill Forest Arboretum,"Collected by Guy Sternberg, north bound I55 rest area mile 42 in New Madrid, MO.; this is seed-group cultivar, with seedlings being uniform in the characteristics for which it was selected. ",MOR,175242,,http://quercus.lifedesks.org/node/1009,,,New Madrid,,Missouri,USA,36.537856,-89.594182,"Google Earth of New Madrid, MO, along I55",NO,YES,,>OAK-MOR-490,texana
Quercus texana | OAK-MOR-500 | USA : Illinois,OAK-MOR-500,,YES,2,2,B3,MOR,OAK-MOR-500,Quercus texana = Quercus nuttallii var. cachensis ,Quercus texana,Lobatae,USA : Illinois,IL-SH-028,Starhill Forest Arboretum,"Horeshoe Lake; Olive Branch, IL, USA",MOR,175241,this is closer to the palustris than to the other texana New Madrid in both the RAD and AFLP analysis,http://quercus.lifedesks.org/node/976,,,,Alexander,Illinois,USA,37.169414,-89.351642,"google maps of Olive Branch, IL",NO,YES,,>OAK-MOR-500,texana
Quercus palustris | OAK-MOR-699 | USA : Kentucky,OAK-MOR-699,,yes,3,4,B11,MOR,OAK-MOR-699,Quercus palustris,Quercus palustris,Lobatae,USA : Kentucky,IL-MOR-MH05,THe Morton Arboretum,collected in Fayette County Kentucky U.S.A.,,,,,,,,,,,38.052609,-84.472162,"Google earth to Fayette County, KY",NO,NO,,>OAK-MOR-699.barcodeStripped,palustris
Quercus palustris | OAK-MOR-358 | USA : Illinois,OAK-MOR-358,,YES,1,1,F8,MOR,OAK-MOR-358,Quercus palustris,Quercus palustris,Lobatae,USA : Illinois,IL-MOR-MH004,The Morton Arboretum,"collected by: Raymond F. Schulenberg, The Morton Arboretum;  from island in the Mississippi River  in Henderson County Illinois U.S.A.","MOR, UMN(2), DUKE, ND, MX",174523,,http://quercus.lifedesks.org/node/984,http://quercus.lifedesks.org/node/498,,,Henderson,Illinois,USA,40.842163,-91.080078,"Google Earth to Mississippi river in Henderson Co., IL",NO,YES,,>OAK-MOR-358,palustris
Quercus baronii | OAK-MOR-608 | ,OAK-MOR-608,,,5,6,B2,MOR,OAK-MOR-608,Quercus baronii,Quercus baronii,Cerris,,IL-MOR-MH230,The Morton Arboretum,,,,RAD seq of LC collections,,,,,,,,NA,NA,,,,,>OAK-MOR-608.nameFixed,baronii
Quercus acutissima | OAK-MOR-578 | ,OAK-MOR-578,,,4,5,G5,MOR,OAK-MOR-578,Quercus acutissima,Quercus acutissima,Cerris,,IL-MOR-MH209,The Morton Arboretum,,,,RAD seq of LC collections,,,,,,,,NA,NA,,,,,>OAK-MOR-578.barcodeStripped,acutissima
Quercus trojana | OAKS-MOR-585 |  : ,OAKS-MOR-585,,yes,6,7,F12,MOR,OAKS-MOR-585,Quercus trojana,Quercus trojana,Cerris, : ,IL-MOR-MH206,MOR cultivated,,,,,,,,,,,,NA,NA,,,,,>OAKS-MOR-585,trojana
Quercus libani | OAK-MOR-191 | ,OAK-MOR-191,,YES,1,1,G10,MOR,OAK-MOR-191,Quercus libani,Quercus libani,Cerris,,IL-SH-176,Starhill Forest Arboretum,"Hilliers Arb., England, Cultivated (Eillier #88-0910 Seed Coombes 94)",MOR,175352,,,http://quercus.lifedesks.org/node/539,http://quercus.lifedesks.org/node/540,,,,,NA,NA,"unknown….So according to international oak society.. Natural range is WEST ASIA: W IRAN, NW IRAQ, N ISRAEL, N & W SYRIA, TURKEY: (E Anatolia)",NO,YES,,>OAK-MOR-191,libani
Lithocarpus hancei | DM74 | ,DM74,,,NA,NA,,,,Lithocarpus hancei,Lithocarpus hancei,,,,,,,,,,,,,,,,NA,NA,,,,,>DM74,hancei
Castanea densata | DM71 |  :,DM71,,,NA,NA,,,,Castanea densata,Castanea densata,, :,,,,,,,,,,,,,,NA,NA,,,,,>DM71,densata
Castanopsis fissa | DM46 |  :,DM46,,,NA,NA,,,,Castanopsis fissa,Castanopsis fissa,, :,,,,,,,,,,,,,,NA,NA,,,,,>DM46,fissa
Quercus sadleriana | PM-103a | USA : California,PM-103a,,yes,3,4,G4,DUKE,PM-103a,Quercus sadleriana,Quercus sadleriana,Quercus,USA : California,PM-103,Wild collected,"Collected by MR Mesler in California, USA",,,,,,,,,California,USA,NA,NA,NA,NO,NO,,>PM-103a.barcodeStripped,sadleriana
Quercus sadleriana | OAK-MOR-626 | USA : CULTIVATED,OAK-MOR-626,,yes,3,4,H11,MOR,OAK-MOR-626,Quercus sadleriana,Quercus sadleriana,Quercus,USA : CULTIVATED,EMBG-1106,Elizabeth Miller Botanical Garden,"Cultivated, Unknown; Elizabeth Miller Botanic Gardens",,,,,,,,,,,NA,NA,NA,NO,NO,,>OAK-MOR-626.barcodeStripped,sadleriana
Quercus sadleriana | OAK-MOR-625 | USA : CULTIVATED,OAK-MOR-625,,yes,3,4,G11,MOR,OAK-MOR-625,Quercus sadleriana,Quercus sadleriana,Quercus,USA : CULTIVATED,EMBG-2907,Elizabeth Miller Botanical Garden,"Cultivated, Unknown; Elizabeth Miller Botanic Gardens",,,,,,,,,,,NA,NA,NA,NO,NO,,>OAK-MOR-625.barcodeStripped,sadleriana
Quercus pontica | OAK-MOR-623 |  : ,OAK-MOR-623,,yes,3,4,E11,MOR,OAK-MOR-623,Quercus pontica,Quercus pontica,Quercus, : ,EMBG-1196,Elizabeth Miller Botanical Garden,"Cultivated, Unknown; Elizabeth Miller Botanic Gardens",,,,,,,,,,,NA,NA,NA,NO,NO,,>OAK-MOR-623.barcodeStripped,pontica
Quercus pontica | OAK-MOR-624 |  : ,OAK-MOR-624,,yes,3,4,F11,MOR,OAK-MOR-624,Quercus pontica,Quercus pontica,Quercus, : ,EMBG-970309,Elizabeth Miller Botanical Garden,"Cultivated, Unknown; Elizabeth Miller Botanic Gardens",,,,,,,,,,,NA,NA,NA,NO,NO,,>OAK-MOR-624.barcodeStripped,pontica
Quercus pontica | OAK-MOR-199 | Turkey : ,OAK-MOR-199,,YES,1,1,B9,MOR,OAK-MOR-199,Quercus pontica,Quercus pontica,Quercus,Turkey : ,IL-SH-167,Starhill Forest Arboretum,"Hayrettin Karaca; Artvin, Turkey",MOR-photo voucher,176071,Falling out strangely; see photo- maybe misidentified?; we do NOT have another option for this species….,http://quercus.lifedesks.org/node/566,,,Artvin,,,Turkey,41.18277,41.81829,"Google earth to Artvin, Turkey",NO,YES,,>OAK-MOR-199,pontica
Quercus fusiformis | MXED8 |  :,MXED8,,,NA,NA,,,,Quercus fusiformis,Quercus fusiformis,Quercus, :,,,,,,,,,,,,,,NA,NA,,,,,>MXED8,fusiformis
Quercus brandegeei | BJVL19 |  :,BJVL19,,,NA,NA,,,,Quercus brandegei,Quercus brandegeei,Quercus, :,,,,,,,,,,,,,,NA,NA,,,,,>BJVL19,brandegeei
Quercus brandegeei | BJSL25 |  :,BJSL25,,,NA,NA,,,,Quercus brandegei,Quercus brandegeei,Quercus, :,,,,,,,,,,,,,,NA,NA,,,,,>BJSL25,brandegeei
Quercus minima | FLCK216 | ,FLCK216,,,NA,NA,,,,Quercus minima,Quercus minima,Quercus,,,,,,,,,,,,,,,NA,NA,,,,,>FLCK216,minima
Quercus geminata | FLAB109 | ,FLAB109,,,NA,NA,,,,Quercus geminata,Quercus geminata,Quercus,,,,,,,,,,,,,,,NA,NA,,,,,>FLAB109,geminata
Quercus geminata | FLSF54 | ,FLSF54,,,NA,NA,,,,Quercus geminata,Quercus geminata,Quercus,,,,,,,,,,,,,,,NA,NA,,,,,>FLSF54,geminata
Quercus virginiana | FLBA140 |  :,FLBA140,,,NA,NA,,,,Quercus virginiana,Quercus virginiana,Quercus, :,,,,,,,,,,,,,,NA,NA,,,,,>FLBA140,virginiana
Quercus oleoides | CRL0001 |  :,CRL0001,,,NA,NA,,,,Quercus oleoides,Quercus oleoides,Quercus, :,,,,,,,,,,,,,,NA,NA,,,,,>CRL0001,oleoides
Quercus oleoides | CRL0030 |  :,CRL0030,,,NA,NA,,,,Quercus oleoides,Quercus oleoides,Quercus, :,,,,,,,,,,,,,,NA,NA,,,,,>CRL0030,oleoides
Quercus sagraeana | CUVN10 |  :,CUVN10,,,NA,NA,,,,Quercus sagraena,Quercus sagraeana,Quercus, :,,,,,,,,,,,,,,NA,NA,,,,,>CUVN10,sagraeana
Quercus durata | PM1 | USA : California,PM1,yes,YES,2,2,F12,DUKE,PM1,Quercus durata,Quercus durata,Quercus,USA : California,PM1,Wild collected,"California, CA, 1416m elevation, collected by Paul Manos",,,,,,,,,California,USA,38.51265,-122.48304,?? Only have information to State level ; Google Earth to ~mid point in California; accuracy to state only!!!!!!!!!!!!!!!!!!!!!! I put it in Napa County; ,NO,YES,,>PM1,durata
Quercus durata | OAK-MOR-336 | USA : California,OAK-MOR-336,,YES,1,1,F3,MOR,OAK-MOR-336,Quercus durata,Quercus durata,Quercus,USA : California,CA-DAV-MH064,UC Davis Arboretum,collected directly from wild; origin known California Native.,"MOR, UMN, DUKE, ND",174677,,,,,,,California,USA,38.51265,-122.48304,Google Earth to ~mid point in California; accuracy to state only!!!!!!!!!!!!!!!!!!!!!! I put it in Napa County; ,NO,YES,,>OAK-MOR-336,durata
Quercus berberidifolia | OAK-MOR-508 | USA : California,OAK-MOR-508,,YES,1,1,A12,MOR,OAK-MOR-508,Quercus berberidifolia,Quercus berberidifolia,Quercus,USA : California,CA-DAV-MH047,UC Davis Arboretum,"CA: Solano Co.: 0.8 mi. below summit, Mix Canyon. Gankin & J. Ben Jaacov. s.n.","MOR, UMN, DUKE, ND",174692,,,,,,Solano,California,USA,38.41167,-122.04917,GEOLocate Web App.,YES,NO,,>OAK-MOR-508,berberidifolia
Quercus berberidifolia | OAK-MOR-507 | USA : California,OAK-MOR-507,,YES,2,2,E3,MOR,OAK-MOR-507,Quercus berberidifolia,Quercus berberidifolia,Quercus,USA : California,ARAM s.n. A,Wild collected,"California, USA; 1 mile west of Lake County line in Mendocino City, on route 20, south side of road by driveway.",MOR,174687,,,n/a,n/a,Mendocino,,California,USA,39.198371,-123.055976,Google Earth; 1 mile west on rt 20 past lake/mendocino county lines,NO,YES,,>OAK-MOR-507,berberidifolia
Quercus garryana var. fruticosa | OAK-MOR-422 | USA : California,OAK-MOR-422,,YES,1,1,F4,MOR,OAK-MOR-422,Quercus garryana var. fruticosa = Q. garryana v. breweri,Quercus garryana var. fruticosa,Quercus,USA : California,CA-DAV-MH021,UC Davis Arboretum,CA: El Dorado County: Diamond Springs: Collected at the end of South Point Rd. R. Gankin & Stebbins s.n. 29 Sep 1964.,"MOR, UMN, DUKE, ND",174699,,,,,,El Dorado,California,USA,38.678479,-120.812513,"Google Earth to Diamond Sprinds, CA, South Point Rd.",YES,YES,,>OAK-MOR-422,garryana
Quercus garryana var. garryana | OAK-MOR-723 | USA : CULTIVATED,OAK-MOR-723,,,4,5,D9,MOR,OAK-MOR-723,Quercus garryana var. garryana,Quercus garryana var. garryana,Quercus,USA : CULTIVATED,FF-243,Rancho Santa Ana Botanical Garden,Rancho Santa Ana,,,,,,,,,,,NA,NA,,,,,>OAK-MOR-723.barcodeStripped,garryana
Quercus pacifica | PM-3b | USA : California,PM-3b,,yes,3,4,E3,DUKE,PM-3b,Quercus pacifica,Quercus pacifica,Quercus,USA : California,PM-3,Rancho Santa Ana Botanical Garden,Collected from Rancho Santa Anna Botanic Garden.  Source info from RSABG : ???,,,,,,,,,,,33.375519,-118.417955,Google earth to middle of Santa Catalina Island,NO,NO,,>PM-3b.barcodeStripped,pacifica
Quercus pacifica | OAK-MOR-470 | USA : California,OAK-MOR-470,,YES,1,1,C8,MOR,OAK-MOR-470,Quercus pacifica,Quercus pacifica,Quercus,USA : California,QUPA108,Wild collected,silia-dried leaves received from Janet Backs; QUPA108 (shrub) Santa Rosa,n/a,photo voucher,,http://quercus.lifedesks.org/node/989,,,,,California,USA,33.98254735,-120.0735741,GPS,NO,YES,,>OAK-MOR-470,pacifica
Quercus dumosa | PM141 | USA : California,PM141,,yes,3,4,H4,DUKE,PM141,Quercus dumosa,Quercus dumosa,Quercus,USA : California,PM141,Wild collected,,,,,,,,,,,USA,34.018,-118.381,PM gps info,NO,NO,,>PM141.barcodeStripped,dumosa
Quercus cornelius-mulleri | OAK-MOR-715 | USA : California,OAK-MOR-715,,,5,6,B1,MOR,Quercus-MOR-715,Quercus cornelius-mulleri,Quercus cornelius-mulleri,Quercus,USA : California,FF239,Rancho Santa Ana Botanical Garden,,,,,,,,,,,,NA,NA,,,,,>OAK-MOR-715.nameFixed,cornelius-mulleri
Quercus john-tuckeri | OAK-MOR-709 | USA : California,OAK-MOR-709,,,4,5,E9,MOR,OAK-MOR-709,Quercus john-tuckeri,Quercus john-tuckeri,Quercus,USA : California,FF-240,Rancho Santa Ana Botanical Garden,Rancho Santa Ana,,,,,,,,,,,NA,NA,,,,,>OAK-MOR-709.barcodeStripped,john-tuckeri
Quercus cornelius-mulleri | OAK-MOR-725 | USA : California,OAK-MOR-725,,,5,6,A1,MOR,Quercus-MOR-725,Quercus cornelius-mulleri,Quercus cornelius-mulleri,Quercus,USA : California,FF245,Rancho Santa Ana Botanical Garden,,,,,,,,,,,,NA,NA,,,,,>OAK-MOR-725.nameFixed,cornelius-mulleri
Quercus douglasii | OAK-MOR-696 | USA : California,OAK-MOR-696,,yes,3,4,D11,MOR,OAK-MOR-696,Quercus douglasii,Quercus douglasii,Quercus,USA : California,CA-DAV-MH42,UC Davis Arboretum,"CA: Solano Co.: 2.5 mi. below summit, Mix Canyon. Gankin & J. Ben Jaacov s.n.",,,,,,,,,,,38.41167,-122.04917,GEOLocate Web App.,NO,NO,,>OAK-MOR-696.barcodeStripped,douglasii
Quercus douglasii | OAK-MOR-90 | USA : California,OAK-MOR-90,,yes,3,4,F5,MOR,OAK-MOR-90,Quercus douglasii,Quercus douglasii,Quercus,USA : California,CA-DAV-MH43,UC Davis Arboretum,"CA: Solano Co.: Winters: Plant was grown from seed collected along Central Lane, off of Pitt School Rd. John Lichter s.n.",,174694,"voucher looked at by AH, approved",http://quercus.lifedesks.org/node/953,,,,,,,38.454117,-121.840951,"Google earth to Pitt School Rd in Solano Co., couldnt find Central Lane…",NO,NO,,>OAK-MOR-90.barcodeStripped,douglasii
Quercus douglasii | OAK-MOR-531 | USA : California,OAK-MOR-531,,YES,1,1,E3,MOR,OAK-MOR-531,Quercus douglasii,Quercus douglasii,Quercus,USA : California,CA-MH073,Wild collected,"California, USA; off US route 50; east side of green stone route, just off rt 50 to north","MOR, UMN, DUKE, MX",174681,,http://quercus.lifedesks.org/node/980,,,,,California,USA,38.696153,-120.887322,Google Earth Rt 50 and greet stone rd.,YES,NO,,>OAK-MOR-531,douglasii
Quercus lobata | OAK-MOR-502 | USA : California,OAK-MOR-502,,YES,1,1,E6,MOR,OAK-MOR-502,Quercus lobata,Quercus lobata,Quercus,USA : California,CA-MH074,Wild collected,"California, USA; off US route 50; east side of green stone route, just off rt 50 to north","MOR, UMN, DUKE, MX",174696,,http://quercus.lifedesks.org/node/966,,,,,California,USA,38.696153,-120.887322,estimate from Google Earth along US rt 50,NO,YES,,>OAK-MOR-502,lobata
Quercus lobata | OAK-MOR-697 | USA : California,OAK-MOR-697,,yes,3,4,A11,MOR,OAK-MOR-697,Quercus lobata ,Quercus lobata,Quercus,USA : California,CA-DAV-MH63,UC Davis Arboretum,uncertain; California native,,,,,,,,,,,NA,NA,NA,NO,NO,,>OAK-MOR-697.barcodeStripped,lobata
Quercus lobata | OAK-MOR-123 | USA : California,OAK-MOR-123,,yes,3,4,F6,MOR,OAK-MOR-123,Quercus lobata,Quercus lobata,Quercus,USA : California,CA-DAV-MH53,UC Davis Arboretum,"CA, San Benito Co. Panoche Valley.  Lou Waters sn 10 Nov 1964",,174703,"voucher looked at by AH, approved",http://quercus.lifedesks.org/node/967,,,,San Benito,California,USA,36.61667,-120.85,GEOLocate Web App.,YES,NO,,>OAK-MOR-123.barcodeStripped,lobata
Quercus muehlenbergii var. brayi | OAK-MOR-164 | USA : New MEXICO,OAK-MOR-164,,yes,6,7,D12,MOR,OAK-MOR-164,Quercus muhlenbergii var. brayi (Small) Sarg.,Quercus muehlenbergii var. brayi,Quercus,USA : New MEXICO,IL-SH-095,Starhill Forest Arboretum,"Collected by Tom Burleson in Roswell, NM, USA",,,,,,,,,,,NA,NA,,,,,>OAK-MOR-164,muehlenbergii
Quercus muehlenbergii | OAK-MOR-639 | USA : Texas,OAK-MOR-639,,yes,3,4,C12,MOR,OAK-MOR-639,Quercus muehlenbergii,Quercus muehlenbergii,Quercus,USA : Texas,CA-DAV-MH049,UC Davis Arboretum,"Texas: Culberson County: Guadalupe Mountains:
McKittrick Canyon: 0.6 Mile downstream from Rock House. Typical medium-sized tree; along a wash in a patch of larger trees, in rather open part of canyon. 5150 ft. D. Cavagnaro 206. 11 Oct 1963.",,,Also being used for CP seq,,,,,,,,31.97917,-104.75417,GEOLocate Web App,YES,NO,,>OAK-MOR-639.barcodeStripped,muehlenbergii
Quercus prinoides | OAK-MOR-532 | USA : Nebraska,OAK-MOR-532,,YES,1,1,H12,MOR,OAK-MOR-532,Quercus prinoides,Quercus prinoides,Quercus,USA : Nebraska,IL-SH-096,Starhill Forest Arboretum,"Collected by Greg Morgenson, SW of Salem, NE, Richardson Co.",MOR,175238,,,,,,Richardson,Nebraska,USA,40.076297,-95.720956,"Google Earth to Salem, Nebraska",YES,YES,,>OAK-MOR-532,prinoides
Quercus muehlenbergii | PM-98 | USA : New York,PM-98,,yes,3,4,B3,DUKE,PM-98,Quercus muehlenbergii,Quercus muehlenbergii,Quercus,USA : New York,PM-98,Wild collected,"Collected by EA Cope in New York, USA",,,,,,,,,New York,USA,42.564255,-76.873839,PM gps info,NO,NO,,>PM-98.barcodeStripped,muehlenbergii
Quercus muehlenbergii | OAK-MOR-383 | USA : Illinois,OAK-MOR-383,,YES,1,1,G7,MOR,OAK-MOR-383,Quercus muehlenbergii,Quercus muehlenbergii,Quercus,USA : Illinois,IL-MOR-MH103,The Morton Arboretum,"collected by: Connor B. Shaw, Possibility Place Nursery, Inc.;  in campground north of the Kankakee River under spont. plants 1/2 mile west of the Kankakee Co. line in Will County Illinois U.S.A.","MOR, UMN, DUKE, ND",174533,,,http://quercus.lifedesks.org/node/409,http://quercus.lifedesks.org/node/405,,Will,Illinois,USA,41.210569,-88.017575,"Google earth to Will County IL, north of River and ~1/2 mile west of Kankakee Co line",YES,YES,,>OAK-MOR-383,muehlenbergii
Quercus muehlenbergii | OAK-MOR-260 | USA : Illinois,OAK-MOR-260,,yes,6,7,E12,MOR,OAK-MOR-260,Quercus muehlenbergii Engelm.,Quercus muehlenbergii,Quercus,USA : Illinois,IL-SH-153,Starhill Forest Arboretum,"SHF spont.; Petersburg, IL, USA",,,,,,,,,,,NA,NA,,,,,>OAK-MOR-260,muehlenbergii
Quercus prinoides | PM-93b | USA : New York,PM-93b,,yes,3,4,E4,DUKE,PM-93b,Quercus prinoides,Quercus prinoides,Quercus,USA : New York,PM-93,Wild collected,"Colleced by EA Cope in New York, USA",,,,,,,,,New York,USA,42.001477,-76.599121,PM gps info,NO,NO,,>PM-93b.barcodeStripped,prinoides
Quercus prinoides | OAK-MOR-143 | USA : Pennsylvania,OAK-MOR-143,,yes,6,7,C12,MOR,OAK-MOR-143,Quercus prinoides Willd.,Quercus prinoides,Quercus,USA : Pennsylvania,IL-MOR-MH091,Morton Arboretum,collected by: Everett C. Logue;  from State College grounds in   Pennsylvania U.S.A.,,,,,,,,,,,NA,NA,,,,,>OAK-MOR-143,prinoides
Quercus muehlenbergii | OAK-MOR-632 | USA : Oklahoma,OAK-MOR-632,,yes,3,4,B12,MOR,OAK-MOR-632,Quercus muehlenbergii,Quercus muehlenbergii,Quercus,USA : Oklahoma,IL-SH-057,Starhill Forest Arboretum,"Custer Co., OK, USA",,,Also being used for CP seq,,,,,,,,35.623899,-99.008733,"Google earth to center of Custer county, OK.",YES,NO,,>OAK-MOR-632.barcodeStripped,muehlenbergii
Quercus macrocarpa | OAK-MOR-672 |  : ,OAK-MOR-672,,,4,5,F6,MOR,OAK-MOR-672,Quercus macrocarpa,Quercus macrocarpa,Quercus, : ,IL-SH-186,Starhill Forest Arboretum,,,,,,,,,,,,NA,NA,,,,,>OAK-MOR-672.barcodeStripped,macrocarpa
Quercus macrocarpa | OAK-MOR-614 |  : ,OAK-MOR-614,,,4,5,G1,MOR,OAK-MOR-614,Quercus macrocarpa,Quercus macrocarpa,Quercus, : ,IL-SH-060,Starhill Forest Arboretum,,,,Also being used for CP seq,,,,,,,,NA,NA,,,,,>OAK-MOR-614.barcodeStripped,macrocarpa
Quercus macrocarpa | OAK-MOR-249 |  : ,OAK-MOR-249,,,4,5,E2,MOR,OAK-MOR-249,Quercus macrocarpa,Quercus macrocarpa,Quercus, : ,IL-SH-027,Starhill Forest Arboretum,,,,Also being used for CP seq,,,,,,,,NA,NA,,,,,>OAK-MOR-249.barcodeStripped,macrocarpa
Quercus macrocarpa | OAK-MOR-356 | USA : Missouri,OAK-MOR-356,,YES,1,1,H6,MOR,OAK-MOR-356,Quercus macrocarpa,Quercus macrocarpa,Quercus,USA : Missouri,IL-MOR-MH108,The Morton Arboretum,collected by: B. C. Anten near Carterville in Jasper County Missouri U.S.A.,"MOR, UMN(2), DUKE, ND, MX",174544,,,,,,Jasper,Missouri,USA,37.149225,-94.443003,"Google Earth to Carterville, Missouri",YES,YES,,>OAK-MOR-356,macrocarpa
Quercus macrocarpa | OAK-MOR-615 |  : ,OAK-MOR-615,,,4,5,H1,MOR,OAK-MOR-615,Quercus macrocarpa,Quercus macrocarpa,Quercus, : ,IL-SH-188,Starhill Forest Arboretum,,,,Also being used for CP seq,,,,,,,,NA,NA,,,,,>OAK-MOR-615.barcodeStripped,macrocarpa
Quercus macrocarpa | OAK-MOR-671 |  : ,OAK-MOR-671,,,4,5,E6,MOR,OAK-MOR-671,Quercus macrocarpa,Quercus macrocarpa,Quercus, : ,IL-SH-059,Starhill Forest Arboretum,,,,,,,,,,,,NA,NA,,,,,>OAK-MOR-671.barcodeStripped,macrocarpa
Quercus macrocarpa | OAK-MOR-673 |  : ,OAK-MOR-673,,,4,5,G6,MOR,OAK-MOR-673,Quercus macrocarpa,Quercus macrocarpa,Quercus, : ,IL-SH-190,Starhill Forest Arboretum,,,,,,,,,,,,NA,NA,,,,,>OAK-MOR-673.barcodeStripped,macrocarpa
Quercus macrocarpa | OAK-MOR-487 |  : ,OAK-MOR-487,,,4,5,D2,MOR,OAK-MOR-487,Quercus macrocarpa,Quercus macrocarpa,Quercus, : ,IL-SH-183,Starhill Forest Arboretum,,,,Also being used for CP seq,,,,,,,,NA,NA,,,,,>OAK-MOR-487.barcodeStripped,macrocarpa
Quercus macrocarpa | OAK-MOR-357 | USA : Illinois,OAK-MOR-357,,YES,1,1,E11,MOR,OAK-MOR-357,Quercus macrocarpa,Quercus macrocarpa,Quercus,USA : Illinois,IL-MOR-MH003,The Morton Arboretum,"collected by: Edward A. Hedborn, The Morton Arboretum;  near Sauk Lake in Sauk Trail Forest Preserve in Cook County Illinois U.S.A.","(3A): MOR;                                     (3B):MOR, UMN(2), DUKE, ND, MX","3A: 174520 (flower, imm.leaves);                              3B: 174521 (mature leaves)",Collected leaves for DNA at same time as collected 3A (in flower); returned to collect 3B for mature leaves; labeled/tagged tree,,,,,Cook,Illinois,USA,41.486798,-87.799832,Google earth to Sauk Trail Forest Preserve,YES,NO,,>OAK-MOR-357,macrocarpa
Quercus lyrata | OAK-MOR-385 | USA : Missouri,OAK-MOR-385,,YES,1,1,F6,MOR,OAK-MOR-385,Quercus lyrata,Quercus lyrata,Quercus,USA : Missouri,IL-MOR-MH096,The Morton Arboretum,"collected by: Midwest Plant Collecting Collaborative (MWPCC) 2004 Ozark Expedi;  near parking lot in Otter Slough State Conservation Area in Stoddard County Missouri U.S.A.(36.720972, -90.112917, 360 ft)","MOR, UMN, DUKE, ND",174540,,,http://quercus.lifedesks.org/node/361,,,Stoddard,Missouri,USA,36.720972,-90.112917,GPS in provenance info,YES,YES,,>OAK-MOR-385,lyrata
Quercus lyrata | OAK-MOR-245 | ,OAK-MOR-245,,,4,5,C2,MOR,OAK-MOR-245,Quercus lyrata,Quercus lyrata,Quercus,,IL-SH-031,Starhill Forest Arboretum,,,,Also being used for CP seq,,,,,,,,NA,NA,,,,,>OAK-MOR-245.barcodeStripped,lyrata
Quercus lyrata | OAK-MOR-611 | ,OAK-MOR-611,,,4,5,F1,MOR,OAK-MOR-611,Quercus lyrata,Quercus lyrata,Quercus,,IL-MOR-MH78,The Morton Arboretum,,,,Also being used for CP seq,,,,,,,,NA,NA,,,,,>OAK-MOR-611.barcodeStripped,lyrata
Quercus lyrata | OAK-UMN-011 | USA : Florida,OAK-UMN-011,,YES,2,2,D4,UMN,OAK-UMN-011,Quercus lyrata,Quercus lyrata,Quercus,USA : Florida,JCB-US-FL-JE-LY-1,Wild collected,"Florida, United States",,175172,,,,,,,Florida,USA,29.92846667,-82.55156667,GPS,NO,NO,,>OAK-UMN-011,lyrata
Quercus bicolor | PM96 | USA : New York,PM96,,not run yet,2,3,A1,DUKE,PM96,Quercus bicolor,Quercus bicolor,Quercus,USA : New York,PM96,Wild collected,"New York, USA;  collected by EA Cope",,,,,,,,,New York,USA,42.459473,-76.502257,PM gps info,NO,NO,,>PM96,bicolor
Quercus bicolor | OAK-MOR-289 | ,OAK-MOR-289,,,4,5,B2,MOR,OAK-MOR-289,Quercus bicolor,Quercus bicolor,Quercus,,IL-SH-184,Starhill Forest Arboretum,,,,Also being used for CP seq,,,,,,,,NA,NA,,,,,>OAK-MOR-289.barcodeStripped,bicolor
Quercus bicolor | OAK-MOR-342 | USA : Illinois,OAK-MOR-342,,YES,1,1,E2,MOR,OAK-MOR-342,Quercus bicolor,Quercus bicolor,Quercus,USA : Illinois,IL-MOR-MH094,The Morton Arboretum,collected along the Des Plaines River near Willow Springs  in Cook County Illinois U.S.A.,"MOR, UMN, DUKE, ND",174534,,,,,,Cook,Illinois,USA,41.740864,-87.860335,"Google earth to Willow Springs, IL",YES,YES,,>OAK-MOR-342,bicolor
Quercus mongolica | OAK-MOR-360 | China : Beijing Shi,OAK-MOR-360,,YES,1,1,E7,MOR,OAK-MOR-360,Quercus mongolica,Quercus mongolica,Quercus,China : Beijing Shi,IL-MOR-MH106,The Morton Arboretum,"collected by: North America-China Plant Exploration Consortium (NACPEC) 1994 B;  at Yunmeng Shan (Dense Cloud Mountain), Wuling Shan Preserve in Miyun County Beijing Shi China. (40.58, 116.7375, 1045 m)","MOR, UMN(2), DUKE, ND, MX",174518,,,http://quercus.lifedesks.org/node/481,,,Miyun,Beijing Shi,China,40.58,116.7375,GPS in provenance info,YES,YES,,>OAK-MOR-360,mongolica
Quercus serrata | OAK-MOR-601 |  : ,OAK-MOR-601,,,5,6,G1,MOR,OAK-MOR-601,Quercus serrata,Quercus serrata,Quercus, : ,IL-MOR-MH225,The Morton Arboretum,,,,RAD seq of LC collections,,,,,,,,NA,NA,,,,,>OAK-MOR-601.nameFixed,serrata
Quercus dentata | OAK-MOR-690 | ,OAK-MOR-690,,,4,5,F5,MOR,OAK-MOR-690,Quercus dentata,Quercus dentata,Quercus,,IL-MOR-MH208,The Morton Arboretum,,,,,,,,,,,,NA,NA,,,,,>OAK-MOR-690.barcodeStripped,dentata
Quercus griffithii | OAK-MOR-529 | Bhutan : ,OAK-MOR-529,,YES,1,1,G12,MOR,OAK-MOR-529,Quercus griffithii,Quercus griffithii,Quercus,Bhutan : ,IL-SH-009,Starhill Forest Arboretum,"Paro, Bhutan; 10,000 ft.; Jason Smith; 06",MOR-Oak street - photo voucher,,,http://quercus.lifedesks.org/node/942,,,Paro,,,Bhutan,27.428684,89.416365,"Google Earth to Paro, Bhutan",NO,YES,,>OAK-MOR-529,griffithii
Quercus fabri | OAK-MOR-545 | China : Yunnan,OAK-MOR-545,,YES,2,2,G1,MOR,OAK-MOR-545 ,Quercus fabri,Quercus fabri,Quercus,China : Yunnan,IL-SH-141,Starhill Forest Arboretum,"Huating temple, xi shan, yunnan 99",MOR-Oak street - photo voucher,,,http://quercus.lifedesks.org/node/921,,,,,Yunnan,China,24.978589,102.619605,Google Earth of Xishan mountain forest park,NO,YES,,>OAK-MOR-545,fabri
Quercus aliena | OAK-MOR-698 | ,OAK-MOR-698,,yes,3,4,F9,MOR,OAK-MOR-698,Quercus aliena,Quercus aliena,Quercus,,IL-MOR-MH011,Starhill Forest Arboretum,,,,,,,,,,,,35.270167,112.460167,GPS in provenance info,NO,NO,,>OAK-MOR-698.barcodeStripped,aliena
Quercus pyrenaica | OAK-MOR-533 | Spain : ,OAK-MOR-533,,YES,1,1,D12,MOR,OAK-MOR-533,Quercus pyrenaica,Quercus pyrenaica,Quercus,Spain : ,IL-SH-119,Starhill Forest Arboretum,Collected by Charles Tubesing in Miraflores De La Sierra; Spain; 1100m; N40d49 W3d46,MOR,175258,,,http://quercus.lifedesks.org/node/569,,,,,Spain,40.8166,-3.7666,GPS,NO,YES,,>OAK-MOR-533,pyrenaica
Quercus pubescens | OAK-MOR-496 | France : ,OAK-MOR-496,,YES,1,1,C9,MOR,OAK-MOR-496,Quercus pubescens,Quercus pubescens,Quercus,France : ,IL-SH-041,Starhill Forest Arboretum,"Lure Mtn. N Slope; 100 K N. of Marseille, France","MOR, MN, DUKE",175275,,,http://quercus.lifedesks.org/node/660,http://quercus.lifedesks.org/node/661,Marseille,,,France,44.117383,5.773676,"Google Earth~100 km of Marseille, France. + google search for Lure Mountains ",NO,YES,,>OAK-MOR-496,pubescens
Quercus macranthera ssp. syspirensis | OAK-MOR-486 | Turkey : Erzurum,OAK-MOR-486,,YES,1,1,G6,MOR,OAK-MOR-486,Quercus macranthera subsp. syspirensis,Quercus macranthera ssp. syspirensis,Quercus,Turkey : Erzurum,IL-SH-044,Starhill Forest Arboretum,"Erzerum, Askale, Kaspinar; Turkey; 1950m;  40-46-45N/40-44-32E",MOR,175229,,,http://quercus.lifedesks.org/node/674,,Aşkale,,Erzurum,Turkey,40.779166,40.74222,GPS,NO,YES,,>OAK-MOR-486,macranthera
Quercus robur ssp. pedunculiflora | OAK-MOR-521 | Romania : ,OAK-MOR-521,,YES,2,2,H2,MOR,OAK-MOR-521,Quercus pedunculiflora  syn of Quercus robur subsp. pedunculiflora,Quercus robur ssp. pedunculiflora,Quercus,Romania : ,IL-SH-175,Starhill Forest Arboretum,"Branesti, Romania",MOR,175399,,,,,Branesti,,,Romania,44.455392,26.357049,"Google Earth of Branesti, Romania",NO,YES,,>OAK-MOR-521,robur
Quercus robur | OAK-MOR-392 |  : ,OAK-MOR-392,,YES,1,1,E9,MOR,OAK-MOR-392,Quercus robur,Quercus robur,Quercus, : ,IL-MOR-MH084,The Morton Arboretum,"collected by: Peter J. van der Linden, The Morton Arboretum;  in the Main Botanical Garden of the Russian Academy of Sciences in Moscow in Russia.","MOR, UMN(2), DUKE, ND, MX",174567,,,http://quercus.lifedesks.org/node/503,http://quercus.lifedesks.org/node/502,,,,,55.838647,37.600483,Google Earth Moscow Botanical Garden of Academy of Sciences,YES,YES,,>OAK-MOR-392,robur
Quercus canariensis | OAK-MOR-534 | ,OAK-MOR-534,,YES,1,1,B2,MOR,OAK-MOR-534,Quercus canariensis,Quercus canariensis,Quercus,,CA-DAV-MH052,UC Davis Arboretum,"collected directly from wild; origin known Kew Gardens, acorns received 8-XII-64.","MOR, UMN, DUKE, ND",174702,,,,,,,,,51.477178,-0.296875,"??? Not sure, so I google earth to Kew Gardens, England??",NO,YES,,>OAK-MOR-534,canariensis
Quercus dalechampii | OAK-MOR-346 | ,OAK-MOR-346,,YES,1,1,F10,MOR,OAK-MOR-346,Quercus dalechampii,Quercus dalechampii,Quercus,,IL-SH-045,Starhill Forest Arboretum,"Zemplen Mts.; Tokaj, Hungary",MOR,175227,,,http://quercus.lifedesks.org/node/684,http://quercus.lifedesks.org/node/682,Tokaj,,,Hungary,48.129866,21.38759,"Google Earth to Tokaj, Hungary",NO,YES,,>OAK-MOR-346,dalechampii
Quercus petraea ssp. iberica | OAK-MOR-351 | Czech Republic : ,OAK-MOR-351,,YES,1,1,G8,MOR,OAK-MOR-351,Quercus polycarpa = Quercus petraea ssp. iberica,Quercus petraea ssp. iberica,Quercus,Czech Republic : ,IL-MOR-MH009,The Morton Arboretum,"collected in Jesenicke podhuri Mts. at Lhotka village, near Hranice na Morave  in Prerov District North Moravia Czech Republic. (300 m)","MOR, UMN(2), DUKE, ND, MX",174515,,,,,,,,Czech Republic,49.779633,18.485583,Google Earth to Hranice in Prerov District.,NO,YES,,>OAK-MOR-351,petraea
Quercus petraea | OAK-MOR-520 | Poland : ,OAK-MOR-520,,YES,1,1,B11,MOR,OAK-MOR-520,Quercus petraea,Quercus petraea,Quercus,Poland : ,IL-MOR-MH097,The Morton Arboretum,"collected on grounds of Lesny Zaklad Doswiadczalny Arboretum  in    Poland. (51.816667, 19.883333, 191 m)","MOR, UMN, DUKE, ND",174539,,,http://quercus.lifedesks.org/node/363,http://quercus.lifedesks.org/node/365,,,,Poland,51.816667,19.883333,GPS in provenance info,YES,YES,,>OAK-MOR-520,petraea
Quercus michauxi | OAK-MOR-353 | USA : Missouri,OAK-MOR-353,,YES,1,1,F11,MOR,OAK-MOR-353,Quercus michauxi,Quercus michauxi,Quercus,USA : Missouri,IL-MOR-MH001,The Morton Arboretum,"collected by: Peter J. van der Linden, The Morton Arboretum;  in picnic ground at Big Oak Tree State Park in Mississippi County Missouri U.S.A.. (36.644722, -89.285)","MOR, UMN(2), DUKE, ND, MX",174516,,,http://quercus.lifedesks.org/node/476,http://quercus.lifedesks.org/node/470,,Mississippi,Missouri,USA,36.644722,-89.285,GPS in provenance info,YES,YES,,>OAK-MOR-353,michauxi
Quercus michauxi | PM155 | ,PM155,,yes,3,4,G12,DUKE,PM155,Quercus michauxi,Quercus michauxi,Quercus,,PM155,,,,,,,,,,,,,36.015223,-78.923317,PM gps info,YES,NO,,>PM155.barcodeStripped,michauxi
Quercus michauxi | OAK-MOR-700 | USA : Illinois,OAK-MOR-700,,yes,3,4,E10,MOR,OAK-MOR-700,Quercus michauxi,Quercus michauxi,Quercus,USA : Illinois,IL-SH-154,Starhill Forest Arboretum,"Horeshoe Lake; Olive Branch, IL ,USA",,,Also being used for CP seq,,,,,,,,37.15382,-89.34699,"Google Earth to Horseshoe Lake near Olive Branch, IL",YES,NO,,>OAK-MOR-700.barcodeStripped,michauxi
Quercus michauxi | PM143 | ,PM143,,yes,3,4,D12,DUKE,PM143,Quercus michauxi,Quercus michauxi,Quercus,,PM143,,,,,,,,,,,,,35.99555,-79.05416,PM gps info,YES,NO,,>PM143.barcodeStripped,michauxi
Quercus michauxi | OAK-MOR-694 | USA : Indiana,OAK-MOR-694,,yes,3,4,D10,MOR,OAK-MOR-694,Quercus michauxi,Quercus michauxi,Quercus,USA : Indiana,IL-MOR-MH079,The Morton Arboretum,"collected by: Friesner, Dept. of Botany Butler University in Jackson County Indiana U.S.A.",,,Also being used for CP seq,,,,,,,,38.905693,-86.035881,"Google earth to Jackson Co, Indiana",YES,NO,,>OAK-MOR-694.barcodeStripped,michauxi
Quercus alba | OAK-MOR-359 | USA : Minnesota,OAK-MOR-359,,YES,1,1,C2,MOR,OAK-MOR-359,Quercus alba,Quercus alba,Quercus,USA : Minnesota,IL-MOR-MH109,The Morton Arboretum,collected by: Dan Keiser;  on a farm  in Anoka County Minnesota U.S.A.,"MOR, UMN(2), DUKE, ND, MX",174462,,,,,,Anoka,Minnesota,USA,45.367983,-93.219304,"Google earth of Anoka, MN.",YES,YES,,>OAK-MOR-359,alba
Quercus alba | OAK-MOR-76 | USA : Michigan,OAK-MOR-76,,yes,3,4,D6,MOR,OAK-MOR-76,Quercus alba,Quercus alba,Quercus,USA : Michigan,IL-MOR-MH86,The Morton Arboretum,"Seeds wild collected by The Morton Arboretum, along St. Joseph River along River Trail on Fernwood Botanical Garden northwest of Niles, Berrien County, Michigan, USA",,174513,"voucher looked at by AH, approved",,,,,Berrien,Michigan,USA,41.866545,-86.349921,"Google earth to river near Fernwood Botanical Garden, in berrien Co, MI",YES,NO,,>OAK-MOR-76.barcodeStripped,alba
Quercus alba | PM-19 | USA : North Carolina,PM-19,,yes,3,4,A4,DUKE,PM-19,Quercus alba,Quercus alba,Quercus,USA : North Carolina,PM-19,Wild collected,Durham county; near crossroad Cornwallis Rd and Murphy School Rd,,,,,,,,Durham,North Carolina,USA,36.021818,-79.016068,PM gps info,YES,NO,,>PM-19.barcodeStripped,alba
Quercus alba | OAK-MOR-204 | USA : Illinois,OAK-MOR-204,,yes,3,4,C6,MOR,OAK-MOR-204,Quercus alba,Quercus alba,Quercus,USA : Illinois,IL-SH-162,Starhill Forest Arboretum/wild,"SHF spontaneous; Petersburg, IL, USA",,175336,"voucher looked at by AH, approved",,,,Petersburg,Menard,Illinois,USA,39.9347718,-89.8016103,GPS,YES,NO,,>OAK-MOR-204.barcodeStripped,alba
Quercus montana | OAK-MOR-352 | USA : Virginia,OAK-MOR-352,,YES,1,1,F7,MOR,OAK-MOR-352,Quercus montana,Quercus montana,Quercus,USA : Virginia,IL-MOR-MH007,The Morton Arboretum,"Collected by: Midwest Plant Collecting Collaborative (MWPCC) 2000 southeast Un;  on Cahas Mt. in Franklin County Virginia U.S.A. (37.141444, -79.995722 )","MOR, UMN(2), DUKE, ND, MX",174846,,,http://quercus.lifedesks.org/node/489,,,Franklin,Virginia,USA,37.141444,-79.995722,GPS in provenance info,YES,YES,,>OAK-MOR-352,montana
Quercus montana | OAK-MOR-575 | USA : North Carolina,OAK-MOR-575,,yes,3,4,G10,MOR,OAK-MOR-575,Quercus montana,Quercus montana,Quercus,USA : North Carolina,IL-SH-116,Starhill Forest Arboretum,"Chimney Rock Park; NC,  USA",,,Also being used for CP seq,,,,,,,,35.429102,-82.251822,"Google earth to Chimney Rock Park, NC.",YES,NO,,>OAK-MOR-575.barcodeStripped,montana
Quercus montana | OAK-MOR-693 | USA : Virginia,OAK-MOR-693,,yes,3,4,F10,MOR,OAK-MOR-693,Quercus montana,Quercus montana,Quercus,USA : Virginia,IL-MOR-MH080,The Morton Arboretum,"collected by: Midwest Plant Collecting Collaborative (MWPCC) 2000 southeast Un;  at picnic area across from entrance to county road 1772 leading to Potts Mountain, Jefferson National Forest  in Craig County Virginia U.S.A. (37.52575, -80.249722, 3040 ft)",,,Also being used for CP seq,,,,,,,,37.52575,-80.249722,GPS from Provenance info.,YES,NO,,>OAK-MOR-693.barcodeStripped,montana
Quercus corrugata | AGR1 | MEXICO,AGR1,,,4,5,D3,AGR,1,Quercus corrugata,Quercus corrugata,Quercus,MEXICO,AGR1,wild,,,,,,,,,,,,NA,NA,,,,,>AGR1.barcodeStripped,corrugata
Quercus corrugata | AGR2 | Mecixo,AGR2,,,4,5,E3,AGR,2,Quercus corrugata,Quercus corrugata,Quercus,Mecixo,AGR2,wild,,,,,,,,,,,,NA,NA,,,,,>AGR2.barcodeStripped,corrugata
Quercus insignis | OAK-UMN-397 | MEXICO : Ranco Veracruz,OAK-UMN-397,,yes,3,4,E1,UMN,OAK-UMN-397,Quercus insignis,Quercus insignis,Quercus,MEXICO : Ranco Veracruz,JCB-MX-??-RV,Wild collected,,,,,,,,,,Ranco Veracruz,Mexico,NA,NA,NA,NO,NO,,>OAK-UMN-397.barcodeStripped,insignis
Quercus insignis | OAK-UMN-383 | Honduras,OAK-UMN-383,,"RAD didnt work; 89,697 reads obtained",2,2,G3,UMN,OAK-UMN-383,Quercus insignis,Quercus insignis,Quercus,Honduras,JCB-HN-UY-39,Wild collected,Honduras; Uyuca Mountain - Biological reserve,,176566,,,,,,,,Honduras,14.02920116,-87.0720708,UTM converter,NO,NO,,>OAK-UMN-383,insignis
Quercus insignis | OAK-UMN-358 | Honduras,OAK-UMN-358,,YES,2,2,E7,UMN,OAK-UMN-358,Quercus insignis,Quercus insignis,Quercus,Honduras,JCB-HN-UY-13,Wild collected,"Honduras, Uyuca Mountain - Biological reserve",,176586,,,,,,,0,Honduras,14.02483411,-87.07131929,UTM converter,NO,YES,,>OAK-UMN-358,insignis
Quercus copeyensis | CR-JCB-3 | Costa Rica,CR-JCB-3,,yes,3,4,H1,UMN,CR-JCB-3,Quercus copeyensis,Quercus copeyensis,Quercus,Costa Rica,CR-JCB-3,Wild collected,Costa Rica,,,,,,,,,,Costa Rica,9.886116,-83.921087,Google Earth to ~center of Costa Rica,NO,NO,,>CR-JCB-3.barcodeStripped,copeyensis
Quercus lancifolia | OAK-UMN-357 | Honduras,OAK-UMN-357,,YES,2,2,D7,UMN,OAK-UMN-357,Quercus lancifolia,Quercus lancifolia,Quercus,Honduras,JCB-HN-UY-12,Wild collected,"Honduras, Uyuca Mountain - Biological reserve",,176585,,,,,,,0,Honduras,14.02494259,-87.07137489,UTM converter,NO,NO,,>OAK-UMN-357,lancifolia
Quercus lancifolia | OAK-UMN-378 | Honduras,OAK-UMN-378,,YES,2,2,C5,UMN,OAK-UMN-378,Quercus lancifolia,Quercus lancifolia,Quercus,Honduras,JCB-HN-UY-34,Wild collected,Honduras; Uyuca Mountain - Biological reserve,,176571,,,,,,,0,Honduras,14.02804403,-87.07123693,UTM converter,NO,YES,,>OAK-UMN-378,lancifolia
Quercus germana | AGR-4 | MEXICO : Veracruz,AGR-4,,yes,3,4,G2,AGR,AGR-4,Quercus germanii,Quercus germana,Quercus,MEXICO : Veracruz,AGR-4-germanii-2,Wild collected,"Veracruz, Mexico, INECOL",,,,,,,,,Veracruz,Mexico,19.4869,-96.9385,GPS,NO,NO,,>AGR-4.barcodeStripped,germana
Quercus germana | OAK-MOR-463 | MEXICO : CULTIVATED,OAK-MOR-463,,YES,1,1,G4,MOR,OAK-MOR-463,Quercus germana,Quercus germana,Quercus,MEXICO : CULTIVATED,IL-SH-012,Starhill Forest Arboretum, BG Javier Clavijero,MOR-Oak street ,NONE,,,,,,,,,NA,NA,NA,NO,YES,,>OAK-MOR-463,germana
Quercus germana | AGR-3 | MEXICO : Veracruz,AGR-3,,yes,3,4,F2,AGR,AGR-3,Quercus germanii,Quercus germana,Quercus,MEXICO : Veracruz,AGR-3-germanii-1,Wild collected,"Veracruz, Mexico, INECOL",,,,,,,,,Veracruz,Mexico,19.4869,-96.9385,GPS,NO,NO,,>AGR-3.barcodeStripped,germana
Quercus germana | OAK-MOR-305 | USA : Texas,OAK-MOR-305,,YES,1,1,E10,MOR,OAK-MOR-305,Quercus germana,Quercus germana,Quercus,USA : Texas,IL-SH-149,Starhill Forest Arboretum,"Texas A & M ; Dallas , TX , USA ;",MOR-Oak street - photo voucher,,,http://quercus.lifedesks.org/node/915,http://quercus.lifedesks.org/node/941,,Dallas,,Texas,USA,32.98709,-96.768997,"Google earth to Texas A&M, Dallas, Texas",NO,YES,,>OAK-MOR-305,germana
Quercus glabrescens | AGR17 | MEXICO,AGR17,,,4,5,A4,AGR,17,Quercus glabrescens,Quercus glabrescens,Quercus,MEXICO,AGR17,wild,,,,,,,,,,,,NA,NA,,,,,>AGR17.barcodeStripped,glabrescens
Quercus grisea | OAK-MOR-362 | USA : Arizona,OAK-MOR-362,,YES,1,1,C5,MOR,OAK-MOR-362,Quercus grisea,Quercus grisea,Quercus,USA : Arizona,AZ-CH-10,Wild collected,"Arizona, USA; Chiracauha Mountains Southern portion in Rucker Canyon","MOR, DUKE, ND, MX",174221,,,,,,,Arizona,USA,31.68515914,-109.2431153,GPS,NO,NO,,>OAK-MOR-362,grisea
Quercus grisea | OAK-MOR-376 | USA : New MEXICO,OAK-MOR-376,,YES,1,1,D5,MOR,OAK-MOR-376,Quercus grisea,Quercus grisea,Quercus,USA : New MEXICO,CA-DAV-MH036,UC Davis Arboretum,New Mexico: 27.3 Miles Sw. of Silver City. 6000 ft. D. Cavagnaro 142. 2 Oct 1963.,"MOR, UMN, DUKE, ND",174582,,,,,,,,,32.514739,-108.635571,"Google earth to ~27.3 miles SW of Silver City, NM",NO,YES,,>OAK-MOR-376,grisea
Quercus toumeyi | OAK-MOR-411 | USA : Arizona,OAK-MOR-411,,YES,1,1,A10,MOR,OAK-MOR-411,Quercus toumeyi,Quercus toumeyi,Quercus,USA : Arizona,AZ-CH-13,Wild collected,"Arizona, USA; Chiracauha Mountains Southern portion in Rucker Canyon","MOR, DUKE, ND, MX",174223,,,,,,,Arizona,USA,31.76769306,-109.2431153,GPS,NO,YES,,>OAK-MOR-411,toumeyi
Quercus toumeyi | OAK-MOR-365 | USA : Arizona,OAK-MOR-365,,YES,2,2,C3,MOR,OAK-MOR-365,Quercus toumeyi,Quercus toumeyi,Quercus,USA : Arizona,AZ-CH-07,Wild collected,"Arizona, USA; Chiracauha Mountains Southern portion in Rucker Canyon","MOR, DUKE, ND, MX",174238,,,,,,,,,31.890411,-109.2431153,GPS,NO,NO,,>OAK-MOR-365,toumeyi
Quercus ajoensis | OAK-UMN-038 | USA : Arizona,OAK-UMN-038,,YES,2,2,H9,UMN,OAK-UMN-038,Quercus ajoensis,Quercus ajoensis,Quercus,USA : Arizona,JCB-US-AZ-AM-AJ-2,Wild collected,"Arizona, USA; Ajo Mountains, Organ Pipe Cactus National Monument, 2 individuals from a dense local population limited to this area (100m stretch) in the south fork of Alamo Canyon (more discrete populations may be present up canyon, also in Arch Canyon); 40 m down canyon from individual #1.  UTM: 338320, 3548917 (+/- 3m accuracy); Elevation: 734 m. ",,175719,,,,,,,Arizona,USA,32.06493,-112.7128045,UTM converter,NO,YES,,>OAK-UMN-038,ajoensis
Quercus ajoensis | OAK-UMN-037 | USA : Arizona,OAK-UMN-037,,YES,2,2,H6,UMN,OAK-UMN-037,Quercus ajoensis,Quercus ajoensis,Quercus,USA : Arizona,JCB-US-AZ-AM-AJ-1,Wild collected,"Arizona, US; Ajo Mountains, Organ Pipe Cactus National Monument, 2 individuals from a dense local population limited to this area (100m stretch) in the south fork of Alamo Canyon (more discrete populations may be present up canyon, also in Arch Canyon).  40 m up canyon from individual #2.  UTM: 338324, 3548879 (+/- 3m accuracy); Elevation: 733 m.",,175718,,,,,,,Arizona,USA,32.06459,-112.7127558,UTM converter,NO,YES,,>OAK-UMN-037,ajoensis
Quercus turbinella | OAK-UMN-040 | USA : Arizona,OAK-UMN-040,,YES,2,2,G6,UMN,OAK-UMN-040,Quercus turbinella,Quercus turbinella,Quercus,USA : Arizona,JCB-US-AZ-CH-TU,Wild collected,"Arizona, US; Chiricahuas, 1 individual from south of Harris Mountain from a local population with greater than 20 individuals 7 miles north of Portal on San Simon Rd, n-facing low hillslopes, a short hike west. UTM: 671856, 3541940 (+/- 3m accuracy); Elevation: 1412m",,175717,,,,,,,Arizona,USA,32.00051,-109.1806829,UTM converter,NO,YES,,>OAK-UMN-040,turbinella
Quercus turbinella | OAK-MOR-537 | USA : Arizona,OAK-MOR-537,,YES,2,2,D3,MOR,OAK-MOR-537,Quercus turbinella,Quercus turbinella,Quercus,USA : Arizona,AZ-CH-06,Wild collected,"Arizona, USA; Chiracauha Mountains Southwestern Research Station","MOR, DUKE, ND, MX",174227,,,,,,,,,32.158973,-109.44627,GPS,NO,YES,,>OAK-MOR-537,turbinella
Quercus oblongifolia | OAK-MOR-398 | USA : Arizona,OAK-MOR-398,,YES,1,1,B8,MOR,OAK-MOR-398,Quercus oblongifolia,Quercus oblongifolia,Quercus,USA : Arizona,CA-DAV-MH040,UC Davis Arboretum,"Arizona: Pima County: Santa Catalina Mts. 4500 ft. J. T.
Marshall s.n. 15 Nov 1963.","MOR, UMN, DUKE, ND",174698,,,,,,Pima,Arizona,USA,32.424484,-110.70691,Google earth to santa catalina Mountains,NO,NO,,>OAK-MOR-398,oblongifolia
Quercus oblongifolia | OAK-MOR-417 | USA : Arizona,OAK-MOR-417,,YES,1,1,A8,MOR,OAK-MOR-417,Quercus oblongifolia,Quercus oblongifolia,Quercus,USA : Arizona,AZ-HU-21,Wild collected,"Arizona, USA; Huachuca Mountains - National Memorial","MOR, DUKE, ND",174235,,,,,,,Arizona,USA,31.3491335,-109.2431153,GPS,NO,YES,,>OAK-MOR-417,oblongifolia
Quercus engelmannii | OAK-MOR-406 | USA : California,OAK-MOR-406,,YES,1,1,B4,MOR,OAK-MOR-406,Quercus engelmannii,Quercus engelmannii,Quercus,USA : California,CA-DAV-MH035,UC Davis Arboretum,"CA: San Diego County: Cedar Canyon, Otay Mtn.: dry stream side. 500 ft. Wayne Roderick s.n","MOR, UMN, DUKE, ND",174583,,,,,,San Diego,California,USA,32.594883,-116.843812,"Google earth to Otay mountain, CA",YES,YES,,>OAK-MOR-406,engelmannii
Quercus engelmannii | OAK-MOR-394 | USA : California,OAK-MOR-394,,YES,1,1,C4,MOR,OAK-MOR-394,Quercus engelmannii,Quercus engelmannii,Quercus,USA : California,CA-DAV-MH037,UC Davis Arboretum,"CA: San Diego Co.: Collected on a field trip November 13-17, 1967 2.0 miles from Hauser Creek Camp Ground along Hauser Creek Rd. R. Gankin s.n. 15 Nov 1967","MOR, UMN, DUKE, ND",174576,,,,,,San Diego,California,USA,32.655035,-116.51453,"Google Earth, along Hauser Greek Road, near Hauser Creek Canyon Trail.  (not sure which campsite)",NO,YES,,>OAK-MOR-394,engelmannii
Quercus laeta | OAK-UMN-088 | MEXICO : Jalisco,OAK-UMN-088,,YES,2,2,F7,UMN,OAK-UMN-088,Quercus laeta,Quercus laeta,Quercus,MEXICO : Jalisco,JCB-MX-JA-AM-157,Wild collected,"Jalisco, Mexico; Autlan to Manaque","UMN, MOR",175900,close but not together with other laeta in RAD,http://quercus.lifedesks.org/node/894,,,,,Jalisco,Mexico,19.64274022,-104.3329098,GPS,NO,NO,,>OAK-UMN-088,laeta
Quercus arizonica | OAK-MOR-535 | USA : New MEXICO,OAK-MOR-535,,YES,1,1,B3,MOR,OAK-MOR-535,Quercus arizonica,Quercus arizonica,Quercus,USA : New MEXICO,IL-SH-123,Starhill Forest Arboretum,"Collected by Mike Melendrez in New Mexico, USA. (1996)",MOR,175255,,http://quercus.lifedesks.org/node/947,http://quercus.lifedesks.org/node/927,,,,New Mexico,USA,34.51994,-105.87009,"Google earth, center of New Mexico, USA",NO,NO,,>OAK-MOR-535,arizonica
Quercus arizonica | OAK-MOR-413 | USA : Arizona,OAK-MOR-413,,YES,1,1,D2,MOR,OAK-MOR-413,Quercus arizonica,Quercus arizonica,Quercus,USA : Arizona,AZ-HU-15,Wild collected,"Arizona, USA; Huachuca Mountains - Carr Canyon Road","MOR, DUKE, ND, MX",174229,,,,,,,Arizona,USA,31.44959506,-109.2431153,GPS,YES,YES,,>OAK-MOR-413,arizonica
Quercus arizonica | OAK-MOR-685 | USA : Arizona,OAK-MOR-685,,yes,3,4,B10,MOR,OAK-MOR-685,Quercus arizonica,Quercus arizonica,Quercus,USA : Arizona,AZ-CH-2,Wild collected,"Chiracauha Mountains Southwestern Research Station
",,,,,,,,,,,31.89723311,-109.2431153,GPS,NO,NO,,>OAK-MOR-685.barcodeStripped,arizonica
Quercus diversifolia | OAK-MOR-400 | MEXICO : Guanajuato,OAK-MOR-400,,YES,1,1,C3,MOR,OAK-MOR-400,Quercus diversifolia,Quercus diversifolia,Quercus,MEXICO : Guanajuato,CA-DAV-MH029,UC Davis Arboretum,"Mexico: State of Guanajuato: Guanajuato: Collected on Dolore Hidalgo Road. 5 Dec 1966. McIntyre and Gankin
253.","MOR, UMN, DUKE, ND",174586,,,,,,,Guanajuato,Mexico,21.018203,-101.258511,"Google earth to Guanajuato, Mexico",NO,YES,,>OAK-MOR-400,diversifolia
Quercus obtusata | JCB-MX-JA-TS-215 | MEXICO : Jalisco,JCB-MX-JA-TS-215,,yes,3,4,B2,UMN,JCB-MX-JA-TS-215,Quercus obtusata,Quercus obtusata,Quercus,MEXICO : Jalisco,JCB-MX-JA-TS-215,Wild collected,,,,,,,,,,,,20.4992113,-103.0308642,GPS,NO,NO,,>JCB-MX-JA-TS-215.barcodeStripped,obtusata
Quercus resinosa | OAK-UMN-140 | MEXICO : Jalisco,OAK-UMN-140,,YES,2,2,B8,UMN,OAK-UMN-140,Quercus resinosa,Quercus resinosa,Quercus,MEXICO : Jalisco,JCB-MX-JA-MS-208,Wild collected,"Jalisco, Mexico; Montana Santa Fe","UMN, MOR",175916,not falling next to each other,http://quercus.lifedesks.org/node/912,,,,,Jalisco,Mexico,20.49524238,-103.0340951,GPS,NO,YES,,>OAK-UMN-140,resinosa
Quercus obtusata | OAK-UMN-136 | MEXICO : Jalisco,OAK-UMN-136,,YES,2,2,A8,UMN,OAK-UMN-136,Quercus obtusata,Quercus obtusata,Quercus,MEXICO : Jalisco,JCB-MX-JA-MS-204,Wild collected,"Jalisco, Mexico; Montana Santa Fe","UMN, MOR",175899,close but not together with other obtusata in RAD,http://quercus.lifedesks.org/node/893,,,,,Jalisco,Mexico,20.49204569,-103.0358749,GPS,NO,NO,,>OAK-UMN-136,obtusata
Quercus magnolifolia | OAK-UMN-166 | MEXICO : Michoacan,OAK-UMN-166,,YES,2,2,D11,UMN,OAK-UMN-166,Quercus magnolifolia,Quercus magnolifolia,Quercus,MEXICO : Michoacan,JCB-MX-MI-ZE-18,Wild collected,"Michoacan, Mexico; Lago Zirahuen - Seccione Alpina - on the path from the dock/restaurant up to the upper cabanas","UMN, MOR",175890,,http://quercus.lifedesks.org/node/887,,,,,Michoacan,Mexico,19.453344,-101.731678,Google Earth estimate to Lago Ziraheun,NO,YES,,>OAK-UMN-166,magnolifolia
Quercus potosina | OAK-UMN-260 | MEXICO : Oaxaca,OAK-UMN-260,,YES,2,2,H11,UMN,OAK-UMN-260,Quercus potosina,Quercus potosina,Quercus,MEXICO : Oaxaca,JCB-MX-OA-TE-9,Wild collected,"Oaxaca, Mexico; ",,175556,,http://quercus.lifedesks.org/node/979,,,,,Oaxaca,Mexico,18.17126887,-97.03584756,GPS,NO,YES,,>OAK-UMN-260,potosina
Quercus obtusata | OAK-UMN-302 | MEXICO : Oaxaca,OAK-UMN-302,,YES,2,2,D10,UMN,OAK-UMN-302,Quercus obtusata,Quercus obtusata,Quercus,MEXICO : Oaxaca,JCB-MX-OA-SV-51,Wild collected,"Oaxaca, Mexico; Sola de Vega",,175501,close but not together with other obtusata in RAD,http://quercus.lifedesks.org/node/977,,,,,Oaxaca,Mexico,16.47202249,-96.99743003,GPS,NO,YES,,>OAK-UMN-302,obtusata
Quercus potosina | OAK-UMN-263 | MEXICO : Oaxaca,OAK-UMN-263,,YES,2,2,A12,UMN,OAK-UMN-263,Quercus potosina,Quercus potosina,Quercus,MEXICO : Oaxaca,JCB-MX-OA-TE-12,Wild collected,"Oaxaca, Mexico; ",,175539,,http://quercus.lifedesks.org/node/978,,,,,Oaxaca,Mexico,18.17126887,-97.03584756,GPS,NO,YES,,>OAK-UMN-263,potosina
Quercus peduncularis | OAK-UMN-293 | MEXICO : Oaxaca,OAK-UMN-293,,YES,2,2,E9,UMN,OAK-UMN-293,Quercus peduncularis,Quercus peduncularis,Quercus,MEXICO : Oaxaca,JCB-MX-OA-SV-42,Wild collected,"Oaxaca, Mexico; Sola de Vega",,175510,,,,,,,Oaxaca,Mexico,16.48842378,-96.98358413,GPS,NO,YES,,>OAK-UMN-293,peduncularis
Quercus peduncularis | OAK-UMN-070 | MEXICO : Jalisco,OAK-UMN-070,,YES,2,2,H7,UMN,OAK-UMN-070,Quercus peduncularis,Quercus peduncularis,Quercus,MEXICO : Jalisco,JCB-MX-JA-MA-139,Wild collected,"Jalisco, Mexico; Manantlan","UMN, MOR",175918,,http://quercus.lifedesks.org/node/913,,,,,Jalisco,Mexico,19.63047431,-104.3312538,GPS,NO,YES,,>OAK-UMN-070,peduncularis
Quercus glaucoides | OAK-UMN-294 | MEXICO : Oaxaca,OAK-UMN-294,,YES,2,2,F9,UMN,OAK-UMN-294,Quercus glaucoides,Quercus glaucoides,Quercus,MEXICO : Oaxaca,JCB-MX-OA-SV-43,Wild collected,"Oaxaca, Mexico; Sola de Vega",,175508,,,,,,,Oaxaca,Mexico,16.48842378,-96.98358413,GPS,NO,NO,,>OAK-UMN-294,glaucoides
Quercus glaucoides | OAK-UMN-333 | MEXICO : Oaxaca,OAK-UMN-333,,YES,2,2,F8,UMN,OAK-UMN-333,Quercus glaucoides,Quercus glaucoides,Quercus,MEXICO : Oaxaca,JCB-MX-OA-MI-82,Wild collected,"Oaxaca, Mexico; Mitla",,175527,,,,,,,Oaxaca,Mexico,16.94717011,-96.22156888,GPS,NO,NO,,>OAK-UMN-333,glaucoides
Quercus glaucoides | OAK-UMN-265 | MEXICO : Oaxaca,OAK-UMN-265,,YES,2,2,A6,UMN,OAK-UMN-265,Quercus glaucoides,Quercus glaucoides,Quercus,MEXICO : Oaxaca,JCB-MX-OA-PA-14,Wild collected,"Oaxaca, Mexico; Papalo",,175517,"IDd in database as Q. glaucescens, but voucher listed as Q. glaucoides.",http://quercus.lifedesks.org/node/960,,,,,Oaxaca,Mexico,17.83546267,-96.91566708,GPS,NO,YES,,>OAK-UMN-265,glaucoides
Quercus deserticola | OAK-UMN-146 | MEXICO : Jalisco,OAK-UMN-146,,YES,2,2,G5,UMN,OAK-UMN-146,Quercus deserticola,Quercus deserticola,Quercus,MEXICO : Jalisco,JCB-MX-JA-MS-214,Wild collected,"Jalisco, Mexico; Montana Santa Fe","UMN, MOR",175915,,http://quercus.lifedesks.org/node/911,,,,,Jalisco,Mexico,20.4992113,-103.0308642,GPS,NO,YES,,>OAK-UMN-146,deserticola
Quercus deserticola | OAK-UMN-091 | MEXICO : Jalisco,OAK-UMN-091,,YES,2,2,H5,UMN,OAK-UMN-091,Quercus deserticola,Quercus deserticola,Quercus,MEXICO : Jalisco,JCB-MX-JA-NC-160,Wild collected,"Jalisco, Mexico; Nevado de Colima","UMN, MOR",175911,,http://quercus.lifedesks.org/node/902,,,,,Jalisco,Mexico,19.62579235,-103.5423565,GPS,NO,YES,,>OAK-UMN-091,deserticola
Quercus segoviensis | OAK-UMN-391 | Honduras,OAK-UMN-391,,YES,1,1,C1,UMN,OAK-UMN-391,Quercus segoviensis,Quercus segoviensis,Quercus,Honduras,JCB-HN-UY-47,Wild collected,Honduras; Uyuca Mountain - Biological reserve,"UMN, MOR",176610,,,,,,,,Honduras,14.03838699,-87.07470396,UTM converter,NO,YES,,>OAK-UMN-391,segoviensis
Quercus purulhana | OAK-UMN-343 | Belize,OAK-UMN-343,,YES,2,2,H3,UMN,OAK-UMN-343,Quercus purulhana,Quercus purulhana,Quercus,Belize,JCB-BZ-MPR-PU-6,Wild collected,Belize ,,,,,,,,,,Belize,17.153462,-88.718554,"Google Earth to center of Belize, maybe can get more specific",NO,NO,,>OAK-UMN-343,purulhana
Quercus purulhana | OAK-UMN-338 | Belize,OAK-UMN-338,,yes,3,4,A1,UMN,OAK-UMN-338,Quercus purulhana,Quercus purulhana,Quercus,Belize,JCB-BZ-MPR-PU-1,Wild collected,,,,,,,,,,,Belize,17.153462,-88.718554,"Google Earth to center of Belize, maybe can get more specific",NO,NO,,>OAK-UMN-338.barcodeStripped,purulhana
Quercus glaucescens | OAK-UMN-309 | MEXICO : Oaxaca,OAK-UMN-309,,YES,2,2,B9,UMN,OAK-UMN-309,Quercus glaucescens,Quercus glaucescens,Quercus,MEXICO : Oaxaca,JCB-MX-OA-PO-58,Wild collected,"Oaxaca, Mexico; Pochutla",,175496,,http://quercus.lifedesks.org/node/959,,,,,Oaxaca,Mexico,15.85948993,-96.46557589,GPS,NO,YES,,>OAK-UMN-309,glaucescens
Quercus new species | JCB-MX-OA-OA-34 | MEXICO : Oaxaca,JCB-MX-OA-OA-34,,yes,3,4,A2,UMN,JCB-MX-OA-OA-34,Quercus new species,Quercus new species,Quercus,MEXICO : Oaxaca,JCB-MX-OA-OA-34,Wild collected,,,,,,,,,,,,16.57455521,-96.92784112,GPS,NO,NO,,>JCB-MX-OA-OA-34.barcodeStripped,new
Quercus magnolifolia | JCB-MX-JA-MA-153 |  : ,JCB-MX-JA-MA-153,,yes,3,4,C2,UMN,JCB-MX-JA-MA-153,Quercus magnolifolia,Quercus magnolifolia,Quercus, : ,JCB-MX-JA-MA-153,Wild collected,,,,,,,,,,,,19.64274022,-104.3329098,GPS,NO,NO,,>JCB-MX-JA-MA-153.barcodeStripped,magnolifolia
Quercus resinosa | JCB-MX-JA-TM-123 | MEXICO : Jalisco,JCB-MX-JA-TM-123,,yes,3,4,D2,UMN,JCB-MX-JA-TM-123,Quercus resinosa,Quercus resinosa,Quercus,MEXICO : Jalisco,JCB-MX-JA-TM-123,Wild collected,,,,,,,,,,,,20.8251691,-103.8562117,GPS,NO,NO,,>JCB-MX-JA-TM-123.barcodeStripped,resinosa
Quercus resinosa | OAK-UMN-041 | MEXICO : Jalisco,OAK-UMN-041,,YES,2,2,G4,UMN,OAK-UMN-041,Quercus resinosa,Quercus resinosa,Quercus,MEXICO : Jalisco,JCB-MX-JA-TM-110,Wild collected,"Jalisco, Mexico","UMN, MOR",175914,not falling next to each other,http://quercus.lifedesks.org/node/910,,,,,Jalisco,Mexico,20.89629097,-105.4095188,GPS,NO,YES,,>OAK-UMN-041,resinosa
Quercus liebmanii | OAK-UMN-288 | MEXICO : Oaxaca,OAK-UMN-288,,YES,2,2,H8,UMN,OAK-UMN-288,Quercus liebmanii,Quercus liebmanii,Quercus,MEXICO : Oaxaca,JCB-MX-OA-OA-37,Wild collected,"Oaxaca, Mexico; North of Oaxaca City",,175714,,,,,,,Oaxaca,Mexico,16.57455521,-96.92784112,GPS,NO,YES,,>OAK-UMN-288,liebmanii
Quercus liebmanii | OAK-UMN-258 | MEXICO : Oaxaca,OAK-UMN-258,,YES,2,2,F6,UMN,OAK-UMN-258,Quercus liebmanii,Quercus liebmanii,Quercus,MEXICO : Oaxaca,JCB-MX-OA-TE-7,Wild collected,"Oaxaca, Mexico; Teotitlan",,175558,,,,,,,Oaxaca,Mexico,18.17986887,-97.04693288,GPS,NO,YES,,>OAK-UMN-258,liebmanii
Quercus glabrescens | OAK-MOR-462 | MEXICO : Hidalgo,OAK-MOR-462,,YES,1,1,H4,MOR,OAK-MOR-462,Quercus glabrescens,Quercus glabrescens,Quercus,MEXICO : Hidalgo,IL-SH-014,Starhill Forest Arboretum,Hidalgo,MOR-Oak street ,NONE,,,,,,,,,20.091096,-98.762387,Google earth to Hidalgo ME,NO,YES,,>OAK-MOR-462,glabrescens
Quercus greggii | OAK-MOR-403 | MEXICO : Nuevo Leon,OAK-MOR-403,,YES,1,1,B5,MOR,OAK-MOR-403,Quercus greggii,Quercus greggii,Quercus,MEXICO : Nuevo Leon,CA-DAV-MH032,UC Davis Arboretum,Mexico: Nuevo Leon: 35.1 miles from La Escondida. McIntyre and Gankin 289. 8 Dec 1966.,"MOR, UMN, DUKE, ND",174578,,,,,,,Nuevo León,Mexico,25.570426,-100.241695,"From google, I think this is south of Monterrey (between 2 mountain ranges ??? Coorinates from Google Earth.",NO,YES,,>OAK-MOR-403,greggii
Quercus martinezii | AGR25 | MEXICO,AGR25,,,4,5,F4,AGR,25,Quercus martinezii,Quercus martinezii,Quercus,MEXICO,AGR25,wild,,,,,,,,,,,,NA,NA,,,,,>AGR25.barcodeStripped,martinezii
Quercus martinezii | AGR22 | MEXICO,AGR22,,,4,5,E4,AGR,22,Quercus martinezii,Quercus martinezii,Quercus,MEXICO,AGR22,wild,,,,,,,,,,,,NA,NA,,,,,>AGR22.barcodeStripped,martinezii
Quercus rugosa | OAK-UMN-150 | MEXICO : Michoacan,OAK-UMN-150,,YES,2,2,B11,UMN,OAK-UMN-150,Quercus rugosa,Quercus rugosa,Quercus,MEXICO : Michoacan,JCB-MX-MI-ZE-1,Wild collected,"Michoacan, Mexico; Lago Zirahuen - on the road to the restaurant Miralago; walked up from Seccion Zirahuen, cabanas","UMN, MOR",175909,,http://quercus.lifedesks.org/node/870,,,,,Michoacan,Mexico,19.453344,-101.731678,GEOLocate web app test Lago Ziraheun,NO,YES,,>OAK-UMN-150,rugosa
